{"type":"FeatureCollection","features":[{"type":"Feature","id":"AL","properties":{"name":"Alabama"},"geometry":{"type":"Polygon","coordinates":[[[-87.36,35.0],[-85.61,34.98],[-85.43,34.12],[-85.18,32.86],[-85.07,32.58],[-84.96,32.42],[-85.0,32.32],[-84.89,32.26],[-85.06,32.14],[-85.05,32.01],[-85.14,31.84],[-85.04,31.54],[-85.11,31.28],[-85.0,31.0],[-85.5,31.0],[-87.6,31.0],[-87.63,30.87],[-87.41,30.67],[-87.45,30.51],[-87.37,30.43],[-87.52,30.28],[-87.66,30.25],[-87.91,30.41],[-87.93,30.66],[-88.01,30.69],[-88.1,30.5],[-88.14,30.32],[-88.39,30.37],[-88.47,31.9],[-88.24,33.8],[-88.1,34.89],[-88.2,35.0],[-87.36,35.0]]]}},{"type":"Feature","id":"AK","properties":{"name":"Alaska"},"geometry":{"type":"MultiPolygon","coordinates":[[[[-131.6,55.12],[-131.57,55.28],[-131.36,55.18],[-131.39,55.01],[-131.65,55.04],[-131.6,55.12]]],[[[-131.83,55.42],[-131.65,55.3],[-131.75,55.13],[-131.83,55.19],[-131.83,55.42]]],[[[-132.98,56.44],[-132.74,56.46],[-132.63,56.42],[-132.66,56.27],[-132.88,56.24],[-133.07,56.33],[-132.98,56.44]]],[[[-133.6,56.35],[-133.16,56.32],[-133.05,56.13],[-132.62,55.91],[-132.47,55.78],[-132.46,55.67],[-132.36,55.65],[-132.34,55.51],[-132.17,55.36],[-132.14,55.24],[-132.03,55.28],[-131.98,55.18],[-131.96,54.79],[-132.03,54.7],[-132.31,54.72],[-132.39,54.92],[-132.48,54.9],[-132.69,55.05],[-132.75,55.0],[-132.92,55.05],[-132.89,54.9],[-132.73,54.94],[-132.63,54.88],[-132.68,54.68],[-132.87,54.7],[-133.16,54.96],[-133.24,55.09],[-133.22,55.23],[-133.45,55.22],[-133.45,55.32],[-133.28,55.33],[-133.1,55.42],[-133.18,55.59],[-133.39,55.62],[-133.42,55.88],[-133.5,56.02],[-133.64,55.92],[-133.69,56.07],[-133.55,56.14],[-133.67,56.31],[-133.6,56.35]]],[[[-133.74,55.56],[-133.55,55.49],[-133.41,55.57],[-133.28,55.53],[-133.42,55.39],[-133.63,55.43],[-133.74,55.56]]],[[[-133.91,56.93],[-134.05,57.03],[-133.89,57.1],[-133.34,57.0],[-133.1,57.01],[-132.93,56.82],[-132.62,56.67],[-132.65,56.55],[-132.82,56.49],[-133.04,56.52],[-133.2,56.45],[-133.42,56.49],[-133.66,56.45],[-133.71,56.68],[-133.69,56.84],[-133.87,56.84],[-133.91,56.93]]],[[[-134.12,56.48],[-134.25,56.56],[-134.4,56.72],[-134.42,56.85],[-134.3,56.91],[-134.17,56.85],[-134.14,56.95],[-133.75,56.77],[-133.71,56.6],[-133.85,56.57],[-133.94,56.38],[-133.84,56.32],[-133.96,56.09],[-134.11,56.14],[-134.13,56.0],[-134.23,56.07],[-134.29,56.35],[-134.12,56.48]]],[[[-134.64,56.28],[-134.67,56.17],[-134.81,56.24],[-135.18,56.68],[-135.41,56.81],[-135.33,56.91],[-135.42,57.17],[-135.69,57.37],[-135.42,57.57],[-135.3,57.48],[-135.06,57.42],[-134.85,57.41],[-134.84,57.25],[-134.64,56.73],[-134.64,56.28]]],[[[-134.71,58.22],[-134.37,58.15],[-134.18,58.16],[-134.19,58.08],[-133.9,57.81],[-134.1,57.85],[-134.15,57.76],[-133.94,57.62],[-133.87,57.36],[-134.08,57.3],[-134.15,57.21],[-134.5,57.03],[-134.6,57.03],[-134.65,57.23],[-134.58,57.34],[-134.61,57.51],[-134.73,57.72],[-134.71,57.83],[-134.78,58.1],[-134.92,58.21],[-134.95,58.41],[-134.71,58.22]]],[[[-135.86,57.33],[-135.72,57.33],[-135.57,57.15],[-135.63,57.02],[-135.86,57.0],[-135.82,57.19],[-135.86,57.33]]],[[[-136.28,58.21],[-135.98,58.2],[-135.78,58.29],[-135.5,58.17],[-135.65,58.04],[-135.59,57.99],[-135.45,58.14],[-135.11,58.09],[-134.92,57.98],[-135.03,57.78],[-134.94,57.76],[-134.82,57.5],[-135.09,57.46],[-135.57,57.68],[-135.56,57.46],[-135.71,57.37],[-135.89,57.41],[-136.0,57.54],[-136.21,57.64],[-136.37,57.83],[-136.57,57.92],[-136.56,58.08],[-136.42,58.13],[-136.38,58.27],[-136.28,58.21]]],[[[-147.08,60.2],[-147.5,59.95],[-147.53,59.85],[-147.87,59.78],[-147.8,59.94],[-147.44,60.1],[-147.21,60.27],[-147.08,60.2]]],[[[-147.56,60.58],[-147.62,60.37],[-147.76,60.16],[-147.96,60.23],[-147.79,60.47],[-147.56,60.58]]],[[[-147.79,70.25],[-147.68,70.2],[-147.16,70.16],[-146.89,70.19],[-146.51,70.19],[-146.1,70.15],[-145.86,70.17],[-145.62,70.09],[-145.2,69.99],[-144.62,69.97],[-144.46,70.03],[-144.08,70.06],[-143.91,70.13],[-143.5,70.14],[-143.5,70.09],[-143.26,70.12],[-142.75,70.04],[-142.4,69.92],[-142.08,69.86],[-142.01,69.8],[-141.71,69.79],[-141.43,69.7],[-141.38,69.64],[-141.21,69.69],[-141.0,69.65],[-141.0,60.3],[-140.53,60.22],[-140.47,60.31],[-139.99,60.18],[-139.7,60.34],[-139.09,60.36],[-139.2,60.09],[-139.05,60.0],[-138.7,59.91],[-138.62,59.77],[-137.6,59.24],[-137.45,58.91],[-137.27,59.0],[-136.83,59.16],[-136.58,59.17],[-136.47,59.29],[-136.48,59.47],[-136.3,59.47],[-136.26,59.63],[-135.95,59.66],[-135.48,59.8],[-135.03,59.57],[-135.07,59.42],[-134.96,59.28],[-134.7,59.25],[-134.38,59.03],[-134.4,58.97],[-134.25,58.86],[-133.84,58.73],[-133.17,58.15],[-133.08,58.0],[-132.87,57.85],[-132.56,57.51],[-132.25,57.22],[-132.37,57.1],[-132.05,57.05],[-132.13,56.88],[-131.87,56.8],[-131.84,56.6],[-131.58,56.61],[-131.09,56.41],[-130.78,56.37],[-130.62,56.27],[-130.47,56.24],[-130.42,56.14],[-130.1,56.11],[-130.0,55.99],[-130.15,55.77],[-130.13,55.58],[-129.99,55.28],[-130.1,55.2],[-130.34,54.92],[-130.69,54.72],[-130.79,54.82],[-130.92,54.79],[-131.01,55.0],[-130.98,55.09],[-131.09,55.19],[-130.86,55.3],[-130.93,55.34],[-131.16,55.2],[-131.28,55.29],[-131.43,55.24],[-131.84,55.46],[-131.7,55.7],[-131.96,55.62],[-131.97,55.5],[-132.18,55.59],[-132.23,55.7],[-132.08,55.83],[-132.13,55.96],[-132.32,55.85],[-132.52,56.08],[-132.64,56.03],[-132.72,56.22],[-132.53,56.34],[-132.34,56.34],[-132.4,56.49],[-132.3,56.68],[-132.45,56.67],[-132.77,56.84],[-132.99,57.03],[-133.52,57.18],[-133.51,57.58],[-133.68,57.63],[-133.64,57.79],[-133.81,57.83],[-134.07,58.05],[-134.14,58.17],[-134.59,58.21],[-135.07,58.5],[-135.28,59.19],[-135.38,59.03],[-135.34,58.89],[-135.14,58.62],[-135.19,58.57],[-135.06,58.35],[-135.09,58.2],[-135.28,58.23],[-135.43,58.4],[-135.63,58.43],[-135.92,58.38],[-135.91,58.62],[-136.09,58.81],[-136.25,58.75],[-136.88,58.96],[-136.93,58.9],[-136.59,58.84],[-136.32,58.67],[-136.21,58.67],[-136.18,58.54],[-136.04,58.38],[-136.39,58.29],[-136.59,58.35],[-136.6,58.21],[-136.86,58.32],[-136.95,58.39],[-137.11,58.39],[-137.57,58.59],[-137.9,58.77],[-137.93,58.87],[-138.12,59.02],[-138.63,59.13],[-138.92,59.25],[-139.42,59.38],[-139.75,59.51],[-139.72,59.64],[-139.63,59.6],[-139.52,59.69],[-139.63,59.88],[-139.49,59.99],[-139.55,60.04],[-139.8,59.83],[-140.32,59.7],[-140.93,59.75],[-141.44,59.87],[-141.47,59.97],[-141.71,59.95],[-141.96,60.02],[-142.54,60.09],[-142.87,60.09],[-143.62,60.04],[-143.89,60.0],[-144.23,60.14],[-144.65,60.21],[-144.79,60.29],[-144.83,60.44],[-145.12,60.43],[-145.22,60.3],[-145.74,60.47],[-145.82,60.55],[-146.35,60.41],[-146.61,60.24],[-146.72,60.4],[-146.61,60.49],[-146.46,60.46],[-145.95,60.58],[-146.02,60.67],[-146.25,60.62],[-146.35,60.74],[-146.57,60.75],[-146.78,61.04],[-146.87,60.97],[-147.17,60.93],[-147.27,60.97],[-147.38,60.88],[-147.76,60.91],[-147.78,60.81],[-148.03,60.78],[-148.15,60.82],[-148.07,61.01],[-148.18,61.0],[-148.35,60.8],[-148.11,60.74],[-148.09,60.59],[-147.94,60.44],[-148.03,60.28],[-148.22,60.33],[-148.27,60.25],[-148.09,60.22],[-147.98,60.0],[-148.25,59.95],[-148.4,60.0],[-148.64,59.94],[-148.76,59.99],[-149.07,59.98],[-149.06,60.06],[-149.2,60.01],[-149.29,59.9],[-149.42,60.0],[-149.58,59.87],[-149.51,59.81],[-149.74,59.73],[-149.95,59.72],[-150.03,59.61],[-150.26,59.52],[-150.41,59.55],[-150.58,59.44],[-150.72,59.45],[-151.0,59.23],[-151.31,59.21],[-151.41,59.28],[-151.59,59.16],[-151.98,59.25],[-151.89,59.42],[-151.64,59.48],[-151.47,59.47],[-151.42,59.54],[-151.13,59.67],[-151.12,59.78],[-151.51,59.63],[-151.83,59.72],[-151.87,59.78],[-151.7,60.03],[-151.42,60.21],[-151.38,60.36],[-151.3,60.39],[-151.26,60.55],[-151.41,60.72],[-151.06,60.79],[-150.4,61.04],[-150.25,60.94],[-150.04,60.91],[-149.74,61.02],[-150.08,61.15],[-150.21,61.26],[-150.47,61.25],[-150.66,61.3],[-150.71,61.25],[-151.02,61.18],[-151.17,61.04],[-151.48,61.01],[-151.8,60.85],[-151.83,60.75],[-152.08,60.69],[-152.14,60.58],[-152.31,60.51],[-152.39,60.3],[-152.73,60.17],[-152.57,60.07],[-152.7,59.92],[-153.02,59.89],[-153.05,59.69],[-153.35,59.62],[-153.44,59.7],[-153.59,59.55],[-153.76,59.54],[-153.73,59.43],[-154.12,59.37],[-154.19,59.07],[-153.75,59.05],[-153.4,58.97],[-153.3,58.87],[-153.44,58.71],[-153.68,58.61],[-153.9,58.61],[-153.92,58.52],[-154.06,58.49],[-154.0,58.38],[-154.15,58.21],[-154.46,58.06],[-154.64,58.06],[-154.82,58.0],[-154.99,58.02],[-155.12,57.96],[-155.08,57.87],[-155.33,57.83],[-155.38,57.71],[-155.55,57.79],[-155.73,57.55],[-156.05,57.57],[-156.02,57.44],[-156.21,57.47],[-156.34,57.42],[-156.34,57.25],[-156.55,56.99],[-156.88,56.95],[-157.16,56.83],[-157.2,56.77],[-157.38,56.86],[-157.67,56.61],[-157.75,56.68],[-157.92,56.66],[-157.96,56.51],[-158.13,56.46],[-158.33,56.48],[-158.49,56.34],[-158.21,56.3],[-158.51,55.98],[-159.38,55.87],[-159.62,55.59],[-159.68,55.65],[-159.64,55.83],[-159.81,55.86],[-160.03,55.79],[-160.06,55.72],[-160.39,55.61],[-160.54,55.47],[-160.58,55.57],[-160.67,55.46],[-160.87,55.53],[-161.23,55.36],[-161.51,55.36],[-161.47,55.5],[-161.59,55.62],[-161.7,55.52],[-161.69,55.41],[-162.05,55.07],[-162.18,55.16],[-162.22,55.03],[-162.47,55.05],[-162.51,55.25],[-162.66,55.29],[-162.72,55.22],[-162.58,55.13],[-162.65,55.0],[-162.85,54.93],[-163.0,55.08],[-163.19,55.09],[-163.22,55.03],[-163.03,54.94],[-163.37,54.8],[-163.14,54.76],[-163.14,54.7],[-163.33,54.75],[-163.59,54.61],[-164.09,54.62],[-164.33,54.53],[-164.35,54.47],[-164.64,54.39],[-164.85,54.42],[-164.92,54.6],[-164.71,54.66],[-164.55,54.89],[-164.34,54.89],[-163.89,55.04],[-163.53,55.05],[-163.4,54.9],[-163.29,55.01],[-163.31,55.13],[-163.11,55.18],[-162.88,55.18],[-162.58,55.45],[-162.25,55.68],[-161.81,55.89],[-161.29,55.98],[-161.08,55.94],[-160.87,56.0],[-160.82,55.91],[-160.93,55.81],[-160.81,55.74],[-160.77,55.86],[-160.51,55.87],[-160.44,55.79],[-160.28,55.76],[-160.27,55.86],[-160.54,55.94],[-160.56,55.99],[-160.38,56.25],[-160.15,56.4],[-159.83,56.54],[-159.33,56.67],[-158.96,56.85],[-158.78,56.78],[-158.64,56.81],[-158.7,56.93],[-158.66,57.03],[-158.38,57.26],[-158.0,57.41],[-157.69,57.61],[-157.71,57.72],[-157.46,58.5],[-157.08,58.71],[-157.12,58.87],[-158.04,58.63],[-158.33,58.66],[-158.4,58.76],[-158.56,58.8],[-158.62,58.91],[-158.77,58.86],[-158.86,58.69],[-158.7,58.48],[-158.89,58.39],[-159.06,58.42],[-159.39,58.76],[-159.62,58.93],[-159.73,58.93],[-159.81,58.8],[-159.91,58.78],[-160.05,58.89],[-160.24,58.9],[-160.32,59.07],[-160.85,58.88],[-161.34,58.74],[-161.37,58.67],[-161.75,58.55],[-161.94,58.66],[-161.77,58.78],[-161.83,59.06],[-161.96,59.36],[-161.7,59.49],[-161.91,59.74],[-162.09,59.88],[-162.23,60.09],[-162.45,60.18],[-162.5,60.0],[-162.76,59.96],[-163.17,59.84],[-163.66,59.8],[-163.93,59.81],[-164.16,59.87],[-164.19,60.03],[-164.39,60.07],[-164.7,60.29],[-164.96,60.34],[-165.27,60.58],[-165.06,60.69],[-165.02,60.89],[-165.18,60.85],[-165.2,60.97],[-165.12,61.08],[-165.32,61.17],[-165.35,61.07],[-165.59,61.11],[-165.62,61.28],[-165.82,61.3],[-165.92,61.42],[-165.92,61.56],[-166.11,61.49],[-166.14,61.63],[-165.9,61.66],[-166.1,61.82],[-165.76,61.83],[-165.76,62.01],[-165.67,62.14],[-165.04,62.54],[-164.91,62.66],[-164.82,62.64],[-164.87,62.81],[-164.63,63.1],[-164.43,63.21],[-164.04,63.26],[-163.74,63.21],[-163.31,63.04],[-163.04,63.06],[-162.66,63.23],[-162.27,63.49],[-162.08,63.51],[-162.03,63.45],[-161.56,63.45],[-161.14,63.5],[-160.77,63.77],[-160.77,63.84],[-160.95,64.09],[-160.97,64.24],[-161.27,64.4],[-161.37,64.53],[-161.08,64.49],[-160.8,64.61],[-160.78,64.72],[-161.14,64.92],[-161.41,64.76],[-161.66,64.79],[-161.9,64.7],[-162.17,64.68],[-162.23,64.62],[-162.54,64.53],[-162.63,64.38],[-162.79,64.32],[-162.86,64.5],[-163.05,64.54],[-163.18,64.4],[-163.25,64.47],[-163.6,64.57],[-164.3,64.56],[-164.81,64.45],[-165.0,64.43],[-165.41,64.5],[-166.19,64.58],[-166.39,64.64],[-166.48,64.74],[-166.41,64.87],[-166.69,64.99],[-166.64,65.11],[-166.46,65.18],[-166.52,65.34],[-166.8,65.34],[-167.03,65.38],[-167.48,65.41],[-167.71,65.5],[-168.07,65.58],[-168.11,65.68],[-167.54,65.82],[-166.83,66.05],[-166.33,66.19],[-166.05,66.11],[-165.76,66.09],[-165.69,66.2],[-165.87,66.22],[-165.88,66.31],[-165.19,66.47],[-164.4,66.58],[-163.98,66.59],[-163.75,66.55],[-163.87,66.39],[-163.83,66.27],[-163.92,66.19],[-163.77,66.06],[-163.49,66.08],[-163.15,66.06],[-162.75,66.09],[-162.63,66.04],[-162.37,66.03],[-162.14,66.08],[-161.84,66.02],[-161.55,66.24],[-161.34,66.25],[-161.2,66.21],[-161.13,66.33],[-161.53,66.4],[-161.91,66.35],[-161.87,66.51],[-162.17,66.69],[-162.5,66.74],[-162.6,66.9],[-162.34,66.94],[-162.02,66.78],[-162.08,66.65],[-161.92,66.55],[-161.57,66.44],[-161.49,66.56],[-161.88,66.72],[-161.71,67.0],[-161.85,67.05],[-162.24,66.99],[-162.64,67.01],[-162.7,67.06],[-162.9,67.01],[-163.74,67.13],[-163.76,67.25],[-164.01,67.53],[-164.21,67.64],[-164.53,67.73],[-165.19,67.97],[-165.49,68.06],[-165.79,68.08],[-166.24,68.25],[-166.68,68.34],[-166.7,68.37],[-166.38,68.42],[-166.23,68.57],[-166.22,68.88],[-165.33,68.86],[-164.26,68.93],[-163.98,68.99],[-163.53,69.14],[-163.11,69.37],[-163.02,69.61],[-162.84,69.81],[-162.47,69.98],[-162.31,70.11],[-161.85,70.31],[-161.78,70.26],[-161.4,70.24],[-160.84,70.34],[-160.49,70.45],[-159.65,70.79],[-159.33,70.81],[-159.3,70.76],[-158.98,70.8],[-158.66,70.79],[-158.03,70.83],[-157.42,70.98],[-156.81,71.29],[-156.57,71.35],[-156.52,71.3],[-155.59,71.17],[-155.51,71.08],[-155.83,70.97],[-155.98,70.96],[-155.97,70.81],[-155.5,70.86],[-155.48,70.94],[-155.26,71.02],[-155.19,70.97],[-155.03,71.15],[-154.57,70.99],[-154.64,70.87],[-154.35,70.84],[-154.18,70.77],[-153.93,70.88],[-153.49,70.89],[-153.24,70.92],[-152.59,70.89],[-152.26,70.84],[-152.42,70.61],[-151.82,70.55],[-151.77,70.49],[-151.19,70.38],[-151.18,70.43],[-150.76,70.5],[-150.36,70.49],[-150.35,70.44],[-150.11,70.43],[-149.87,70.51],[-149.46,70.52],[-149.18,70.49],[-148.79,70.4],[-148.61,70.42],[-148.35,70.31],[-148.2,70.35],[-147.96,70.32],[-147.79,70.25]]],[[[-152.94,58.03],[-152.95,57.98],[-153.29,58.05],[-153.04,58.31],[-152.82,58.33],[-152.67,58.56],[-152.5,58.35],[-152.35,58.43],[-152.08,58.31],[-152.08,58.15],[-152.48,58.13],[-152.66,58.06],[-152.94,58.03]]],[[[-153.96,57.54],[-153.67,57.67],[-153.93,57.7],[-153.94,57.81],[-153.72,57.89],[-153.57,57.83],[-153.55,57.72],[-153.46,57.8],[-153.46,57.97],[-153.27,57.89],[-153.24,58.0],[-153.07,57.93],[-152.87,57.93],[-152.72,57.99],[-152.47,57.89],[-152.47,57.6],[-152.15,57.62],[-152.36,57.43],[-152.74,57.51],[-152.6,57.38],[-152.71,57.28],[-152.91,57.33],[-152.91,57.13],[-153.21,57.07],[-153.31,56.99],[-153.5,57.07],[-153.7,56.86],[-153.85,56.84],[-154.01,56.74],[-154.07,56.97],[-154.3,56.85],[-154.31,56.92],[-154.52,56.99],[-154.54,57.19],[-154.74,57.28],[-154.63,57.51],[-154.23,57.66],[-153.98,57.65],[-153.96,57.54]]],[[[-154.53,56.6],[-154.74,56.4],[-154.81,56.43],[-154.53,56.6]]],[[[-155.63,55.92],[-155.48,55.91],[-155.53,55.7],[-155.79,55.73],[-155.84,55.8],[-155.63,55.92]]],[[[-159.89,55.28],[-159.95,55.07],[-160.26,54.89],[-160.11,55.16],[-160.01,55.13],[-159.89,55.28]]],[[[-160.52,55.36],[-160.33,55.36],[-160.34,55.25],[-160.53,55.13],[-160.69,55.21],[-160.79,55.13],[-160.85,55.32],[-160.8,55.38],[-160.52,55.36]]],[[[-162.26,54.98],[-162.23,54.89],[-162.35,54.84],[-162.44,54.93],[-162.26,54.98]]],[[[-162.42,63.63],[-162.56,63.54],[-162.61,63.62],[-162.42,63.63]]],[[[-162.8,54.49],[-162.59,54.45],[-162.61,54.37],[-162.78,54.37],[-162.8,54.49]]],[[[-165.55,54.3],[-165.48,54.18],[-165.63,54.13],[-165.69,54.25],[-165.55,54.3]]],[[[-165.74,54.15],[-166.05,54.04],[-166.11,54.12],[-165.98,54.22],[-165.74,54.15]]],[[[-166.36,60.36],[-166.13,60.4],[-166.08,60.33],[-165.88,60.34],[-165.69,60.28],[-165.65,59.99],[-165.75,59.9],[-166.01,59.84],[-166.06,59.75],[-166.44,59.86],[-166.62,59.85],[-166.99,59.99],[-167.13,59.99],[-167.34,60.07],[-167.42,60.21],[-167.31,60.24],[-166.94,60.21],[-166.76,60.31],[-166.58,60.32],[-166.5,60.39],[-166.36,60.36]]],[[[-166.38,54.01],[-166.21,53.93],[-166.54,53.75],[-166.54,53.72],[-166.12,53.85],[-166.11,53.78],[-166.28,53.68],[-166.56,53.62],[-166.58,53.53],[-166.88,53.43],[-167.14,53.43],[-167.31,53.33],[-167.62,53.25],[-167.79,53.34],[-167.46,53.44],[-167.36,53.43],[-167.1,53.51],[-167.16,53.61],[-167.02,53.72],[-166.81,53.67],[-166.79,53.73],[-167.02,53.75],[-167.14,53.83],[-167.03,53.95],[-166.64,54.02],[-166.56,53.88],[-166.38,54.01]]],[[[-168.79,53.16],[-168.41,53.35],[-168.39,53.43],[-168.24,53.52],[-168.01,53.57],[-167.89,53.52],[-167.84,53.39],[-168.27,53.24],[-168.5,53.04],[-168.69,52.97],[-168.79,53.16]]],[[[-169.75,52.89],[-169.71,52.8],[-169.96,52.79],[-169.99,52.86],[-169.75,52.89]]],[[[-170.15,57.22],[-170.29,57.13],[-170.31,57.22],[-170.15,57.22]]],[[[-170.67,52.7],[-170.6,52.6],[-170.79,52.54],[-170.82,52.64],[-170.67,52.7]]],[[[-171.74,63.72],[-170.95,63.57],[-170.49,63.69],[-170.28,63.68],[-170.09,63.61],[-170.04,63.49],[-169.64,63.43],[-169.52,63.37],[-169.0,63.34],[-168.69,63.3],[-168.86,63.15],[-169.11,63.18],[-169.38,63.15],[-169.51,63.09],[-169.64,62.94],[-169.83,63.08],[-170.06,63.17],[-170.26,63.18],[-170.36,63.28],[-170.87,63.42],[-171.1,63.42],[-171.46,63.31],[-171.74,63.37],[-171.85,63.49],[-171.74,63.72]]],[[[-172.43,52.39],[-172.42,52.28],[-172.61,52.25],[-172.57,52.35],[-172.43,52.39]]],[[[-173.63,52.15],[-173.5,52.11],[-173.12,52.11],[-173.11,52.08],[-173.55,52.03],[-173.63,52.15]]],[[[-174.32,52.28],[-174.33,52.38],[-174.19,52.42],[-173.98,52.32],[-174.06,52.23],[-174.18,52.23],[-174.14,52.13],[-174.33,52.12],[-174.74,52.01],[-174.97,52.04],[-174.9,52.12],[-174.66,52.11],[-174.32,52.28]]],[[[-176.47,51.85],[-176.29,51.87],[-176.29,51.74],[-176.52,51.76],[-176.8,51.61],[-176.91,51.81],[-176.79,51.82],[-176.78,51.96],[-176.63,51.97],[-176.63,51.86],[-176.47,51.85]]],[[[-177.15,51.95],[-177.04,51.9],[-177.12,51.73],[-177.27,51.68],[-177.28,51.78],[-177.15,51.95]]],[[[-178.12,51.92],[-177.95,51.91],[-177.8,51.79],[-177.96,51.65],[-178.12,51.92]]],[[[173.11,52.99],[173.29,52.93],[173.3,52.82],[172.9,52.76],[172.64,52.93],[172.64,53.0],[173.11,52.99]]]]}},{"type":"Feature","id":"AZ","properties":{"name":"Arizona"},"geometry":{"type":"Polygon","coordinates":[[[-109.04,37.0],[-109.05,31.33],[-111.07,31.33],[-112.25,31.7],[-114.82,32.49],[-114.72,32.72],[-114.52,32.76],[-114.47,32.84],[-114.52,33.03],[-114.66,33.03],[-114.73,33.41],[-114.52,33.55],[-114.5,33.7],[-114.54,33.93],[-114.42,34.11],[-114.26,34.17],[-114.14,34.31],[-114.33,34.45],[-114.47,34.71],[-114.63,34.88],[-114.63,35.0],[-114.57,35.14],[-114.6,35.32],[-114.68,35.52],[-114.74,36.1],[-114.37,36.14],[-114.25,36.02],[-114.15,36.03],[-114.05,36.2],[-114.05,37.0],[-110.5,37.01],[-109.04,37.0]]]}},{"type":"Feature","id":"AR","properties":{"name":"Arkansas"},"geometry":{"type":"Polygon","coordinates":[[[-94.47,36.5],[-90.15,36.5],[-90.06,36.3],[-90.22,36.18],[-90.38,36.0],[-89.73,36.0],[-89.76,35.81],[-89.91,35.76],[-89.94,35.6],[-90.13,35.44],[-90.11,35.2],[-90.21,35.02],[-90.31,35.0],[-90.25,34.91],[-90.41,34.83],[-90.48,34.66],[-90.59,34.62],[-90.57,34.42],[-90.75,34.37],[-90.74,34.3],[-90.95,34.14],[-90.89,34.03],[-91.07,33.87],[-91.23,33.56],[-91.06,33.43],[-91.14,33.35],[-91.09,33.14],[-91.17,33.0],[-93.61,33.02],[-94.04,33.02],[-94.04,33.55],[-94.18,33.59],[-94.38,33.54],[-94.48,33.64],[-94.43,35.4],[-94.62,36.5],[-94.47,36.5]]]}},{"type":"Feature","id":"CA","properties":{"name":"California"},"geometry":{"type":"Polygon","coordinates":[[[-123.23,42.01],[-122.38,42.01],[-121.04,42.0],[-120.0,42.0],[-120.0,40.26],[-120.0,39.0],[-118.71,38.1],[-117.5,37.22],[-116.54,36.5],[-115.85,35.97],[-114.63,35.0],[-114.63,34.88],[-114.47,34.71],[-114.33,34.45],[-114.14,34.31],[-114.26,34.17],[-114.42,34.11],[-114.54,33.93],[-114.5,33.7],[-114.52,33.55],[-114.73,33.41],[-114.66,33.03],[-114.52,33.03],[-114.47,32.84],[-114.52,32.76],[-114.72,32.72],[-116.05,32.62],[-117.13,32.54],[-117.25,32.67],[-117.25,32.88],[-117.33,33.12],[-117.47,33.3],[-117.78,33.54],[-118.18,33.76],[-118.26,33.7],[-118.41,33.74],[-118.39,33.84],[-118.57,34.04],[-118.8,34.0],[-119.22,34.15],[-119.28,34.27],[-119.56,34.42],[-119.88,34.41],[-120.14,34.48],[-120.47,34.45],[-120.65,34.58],[-120.61,34.86],[-120.67,34.9],[-120.63,35.1],[-120.89,35.25],[-120.91,35.45],[-121.0,35.46],[-121.17,35.64],[-121.28,35.67],[-121.33,35.78],[-121.72,36.2],[-121.9,36.32],[-121.94,36.64],[-121.86,36.61],[-121.79,36.8],[-121.93,36.98],[-122.11,36.96],[-122.34,37.12],[-122.42,37.24],[-122.4,37.36],[-122.52,37.52],[-122.52,37.78],[-122.33,37.78],[-122.41,38.15],[-122.49,38.11],[-122.5,37.93],[-122.7,37.89],[-122.94,38.03],[-122.98,38.27],[-123.13,38.45],[-123.33,38.57],[-123.44,38.7],[-123.74,38.96],[-123.69,39.03],[-123.82,39.37],[-123.76,39.55],[-123.85,39.83],[-124.11,40.11],[-124.36,40.26],[-124.41,40.44],[-124.16,40.88],[-124.11,41.03],[-124.16,41.14],[-124.07,41.44],[-124.15,41.72],[-124.26,41.78],[-124.21,42.0],[-123.23,42.01]]]}},{"type":"Feature","id":"CO","properties":{"name":"Colorado"},"geometry":{"type":"Polygon","coordinates":[[[-107.92,41.0],[-105.73,41.0],[-104.05,41.0],[-102.05,41.0],[-102.05,40.0],[-102.04,36.99],[-103.0,37.0],[-104.34,36.99],[-106.87,36.99],[-107.42,37.0],[-109.04,37.0],[-109.04,38.17],[-109.06,38.28],[-109.05,39.13],[-109.05,41.0],[-107.92,41.0]]]}},{"type":"Feature","id":"CT","properties":{"name":"Connecticut"},"geometry":{"type":"Polygon","coordinates":[[[-73.05,42.04],[-71.8,42.02],[-71.8,42.01],[-71.8,41.41],[-71.86,41.32],[-71.95,41.34],[-72.39,41.26],[-72.91,41.28],[-73.13,41.15],[-73.37,41.1],[-73.66,40.99],[-73.73,41.1],[-73.48,41.21],[-73.55,41.29],[-73.49,42.05],[-73.05,42.04]]]}},{"type":"Feature","id":"DE","properties":{"name":"Delaware"},"geometry":{"type":"Polygon","coordinates":[[[-75.41,39.8],[-75.51,39.68],[-75.61,39.62],[-75.59,39.46],[-75.44,39.31],[-75.4,39.07],[-75.19,38.81],[-75.09,38.8],[-75.05,38.45],[-75.69,38.46],[-75.79,39.72],[-75.62,39.83],[-75.41,39.8]]]}},{"type":"Feature","id":"FL","properties":{"name":"Florida"},"geometry":{"type":"Polygon","coordinates":[[[-85.5,31.0],[-85.0,31.0],[-84.87,30.71],[-83.5,30.65],[-82.22,30.57],[-82.17,30.36],[-82.05,30.36],[-82.0,30.56],[-82.04,30.75],[-81.95,30.83],[-81.72,30.75],[-81.44,30.71],[-81.38,30.27],[-81.26,29.79],[-80.97,29.15],[-80.52,28.46],[-80.59,28.41],[-80.57,28.09],[-80.38,27.74],[-80.09,27.02],[-80.03,26.8],[-80.04,26.57],[-80.15,25.74],[-80.24,25.72],[-80.34,25.47],[-80.3,25.38],[-80.5,25.2],[-80.57,25.24],[-80.76,25.16],[-81.08,25.12],[-81.17,25.22],[-81.13,25.38],[-81.35,25.82],[-81.53,25.9],[-81.68,25.84],[-81.8,26.09],[-81.83,26.29],[-82.04,26.52],[-82.09,26.67],[-82.06,26.88],[-82.17,26.92],[-82.15,26.79],[-82.25,26.76],[-82.57,27.3],[-82.69,27.44],[-82.39,27.84],[-82.59,27.82],[-82.72,27.69],[-82.85,27.89],[-82.68,28.43],[-82.64,28.89],[-82.76,29.0],[-82.8,29.15],[-82.99,29.18],[-83.22,29.42],[-83.4,29.52],[-83.41,29.67],[-83.54,29.72],[-83.64,29.89],[-84.02,30.1],[-84.36,30.06],[-84.34,29.9],[-84.45,29.93],[-84.87,29.74],[-85.31,29.7],[-85.3,29.81],[-85.4,29.94],[-85.92,30.24],[-86.3,30.36],[-86.63,30.4],[-86.91,30.37],[-87.52,30.28],[-87.37,30.43],[-87.45,30.51],[-87.41,30.67],[-87.63,30.87],[-87.6,31.0],[-85.5,31.0]]]}},{"type":"Feature","id":"GA","properties":{"name":"Georgia"},"geometry":{"type":"Polygon","coordinates":[[[-83.11,35.0],[-83.32,34.79],[-83.34,34.68],[-83.01,34.47],[-82.9,34.49],[-82.75,34.27],[-82.71,34.15],[-82.56,33.94],[-82.33,33.82],[-82.19,33.63],[-81.93,33.46],[-81.94,33.35],[-81.76,33.16],[-81.49,33.01],[-81.43,32.84],[-81.42,32.63],[-81.28,32.56],[-81.12,32.29],[-81.12,32.12],[-80.89,32.03],[-81.13,31.69],[-81.18,31.52],[-81.28,31.36],[-81.29,31.21],[-81.4,31.13],[-81.44,30.71],[-81.72,30.75],[-81.95,30.83],[-82.04,30.75],[-82.0,30.56],[-82.05,30.36],[-82.17,30.36],[-82.22,30.57],[-83.5,30.65],[-84.87,30.71],[-85.0,31.0],[-85.11,31.28],[-85.04,31.54],[-85.14,31.84],[-85.05,32.01],[-85.06,32.14],[-84.89,32.26],[-85.0,32.32],[-84.96,32.42],[-85.07,32.58],[-85.18,32.86],[-85.43,34.12],[-85.61,34.98],[-84.32,34.99],[-83.62,34.98],[-83.11,35.0]]]}},{"type":"Feature","id":"HI","properties":{"name":"Hawaii"},"geometry":{"type":"MultiPolygon","coordinates":[[[[-155.63,18.95],[-155.88,19.04],[-155.92,19.12],[-155.89,19.35],[-156.06,19.73],[-155.93,19.86],[-155.83,20.03],[-155.9,20.15],[-155.88,20.27],[-155.6,20.13],[-155.28,20.02],[-155.09,19.87],[-155.09,19.74],[-154.81,19.52],[-154.98,19.35],[-155.3,19.27],[-155.51,19.13],[-155.63,18.95]]],[[[-156.59,21.03],[-156.47,20.89],[-156.32,20.95],[-156.0,20.79],[-156.05,20.65],[-156.38,20.58],[-156.45,20.61],[-156.46,20.78],[-156.63,20.82],[-156.7,20.92],[-156.59,21.03]]],[[[-156.98,21.21],[-157.08,21.11],[-157.31,21.11],[-157.24,21.22],[-156.98,21.21]]],[[[-157.95,21.7],[-157.84,21.46],[-157.9,21.33],[-158.11,21.3],[-158.25,21.58],[-158.13,21.59],[-157.95,21.7]]],[[[-159.47,22.23],[-159.35,22.22],[-159.3,22.11],[-159.33,21.97],[-159.45,21.87],[-159.76,21.99],[-159.73,22.15],[-159.47,22.23]]]]}},{"type":"Feature","id":"ID","properties":{"name":"Idaho"},"geometry":{"type":"Polygon","coordinates":[[[-116.05,49.0],[-116.05,47.98],[-115.72,47.7],[-115.72,47.42],[-115.53,47.3],[-115.32,47.26],[-115.3,47.19],[-114.93,46.92],[-114.89,46.81],[-114.62,46.71],[-114.61,46.64],[-114.32,46.65],[-114.46,46.27],[-114.49,46.04],[-114.39,45.88],[-114.57,45.77],[-114.5,45.67],[-114.55,45.56],[-114.33,45.46],[-114.09,45.59],[-113.99,45.7],[-113.81,45.6],[-113.83,45.52],[-113.74,45.33],[-113.57,45.13],[-113.45,45.06],[-113.46,44.87],[-113.34,44.78],[-113.13,44.77],[-113.0,44.45],[-112.89,44.39],[-112.78,44.49],[-112.47,44.48],[-112.24,44.57],[-112.1,44.52],[-111.87,44.56],[-111.82,44.51],[-111.62,44.55],[-111.39,44.76],[-111.23,44.58],[-111.05,44.48],[-111.05,42.0],[-112.16,42.0],[-114.04,42.0],[-117.03,42.0],[-117.03,43.83],[-116.9,44.16],[-116.98,44.24],[-117.17,44.26],[-117.24,44.39],[-117.04,44.75],[-116.93,44.78],[-116.83,44.93],[-116.85,45.02],[-116.73,45.14],[-116.67,45.32],[-116.46,45.62],[-116.55,45.75],[-116.78,45.82],[-116.92,45.99],[-116.92,46.17],[-117.06,46.34],[-117.04,46.43],[-117.04,47.76],[-117.03,49.0],[-116.05,49.0]]]}},{"type":"Feature","id":"IL","properties":{"name":"Illinois"},"geometry":{"type":"Polygon","coordinates":[[[-90.64,42.51],[-88.79,42.49],[-87.8,42.49],[-87.84,42.3],[-87.68,42.08],[-87.52,41.71],[-87.53,39.35],[-87.64,39.17],[-87.51,38.96],[-87.5,38.78],[-87.62,38.64],[-87.66,38.51],[-87.84,38.29],[-87.95,38.28],[-87.92,38.15],[-88.0,38.1],[-88.06,37.87],[-88.03,37.8],[-88.16,37.66],[-88.07,37.48],[-88.48,37.39],[-88.51,37.29],[-88.42,37.15],[-88.55,37.07],[-88.91,37.22],[-89.03,37.21],[-89.18,37.04],[-89.13,36.98],[-89.29,36.99],[-89.52,37.28],[-89.44,37.35],[-89.52,37.54],[-89.52,37.69],[-89.84,37.9],[-89.95,37.88],[-90.06,38.01],[-90.36,38.22],[-90.35,38.37],[-90.18,38.63],[-90.21,38.73],[-90.11,38.85],[-90.25,38.92],[-90.47,38.96],[-90.59,38.87],[-90.66,38.93],[-90.73,39.26],[-91.06,39.47],[-91.37,39.73],[-91.49,40.03],[-91.51,40.24],[-91.42,40.38],[-91.4,40.56],[-91.12,40.67],[-91.09,40.82],[-90.96,40.92],[-90.95,41.1],[-91.11,41.24],[-91.05,41.41],[-90.66,41.46],[-90.34,41.59],[-90.31,41.74],[-90.18,41.81],[-90.14,42.0],[-90.17,42.13],[-90.39,42.23],[-90.42,42.33],[-90.64,42.51]]]}},{"type":"Feature","id":"IN","properties":{"name":"Indiana"},"geometry":{"type":"Polygon","coordinates":[[[-85.99,41.76],[-84.81,41.76],[-84.81,41.69],[-84.8,40.5],[-84.82,39.1],[-84.89,39.06],[-84.81,38.79],[-84.99,38.78],[-85.17,38.69],[-85.43,38.73],[-85.42,38.53],[-85.59,38.45],[-85.66,38.33],[-85.83,38.28],[-85.92,38.02],[-86.04,37.96],[-86.26,38.05],[-86.3,38.17],[-86.52,38.04],[-86.5,37.93],[-86.73,37.89],[-86.8,37.99],[-87.05,37.89],[-87.13,37.79],[-87.38,37.94],[-87.51,37.9],[-87.6,37.98],[-87.68,37.9],[-87.93,37.89],[-88.03,37.8],[-88.06,37.87],[-88.0,38.1],[-87.92,38.15],[-87.95,38.28],[-87.84,38.29],[-87.66,38.51],[-87.62,38.64],[-87.5,38.78],[-87.51,38.96],[-87.64,39.17],[-87.53,39.35],[-87.52,41.71],[-87.43,41.64],[-87.12,41.64],[-86.82,41.76],[-85.99,41.76]]]}},{"type":"Feature","id":"IA","properties":{"name":"Iowa"},"geometry":{"type":"Polygon","coordinates":[[[-91.37,43.5],[-91.22,43.5],[-91.2,43.35],[-91.06,43.25],[-91.18,43.13],[-91.14,42.91],[-91.07,42.75],[-90.71,42.64],[-90.64,42.51],[-90.42,42.33],[-90.39,42.23],[-90.17,42.13],[-90.14,42.0],[-90.18,41.81],[-90.31,41.74],[-90.34,41.59],[-90.66,41.46],[-91.05,41.41],[-91.11,41.24],[-90.95,41.1],[-90.96,40.92],[-91.09,40.82],[-91.12,40.67],[-91.4,40.56],[-91.42,40.38],[-91.53,40.41],[-91.73,40.62],[-91.83,40.61],[-93.26,40.58],[-94.63,40.57],[-95.77,40.59],[-95.88,40.72],[-95.83,40.98],[-95.93,41.2],[-95.92,41.45],[-96.1,41.54],[-96.12,41.68],[-96.06,41.8],[-96.13,41.97],[-96.26,42.04],[-96.45,42.49],[-96.63,42.71],[-96.54,42.86],[-96.51,43.05],[-96.43,43.12],[-96.56,43.22],[-96.53,43.4],[-96.58,43.48],[-96.45,43.5],[-91.37,43.5]]]}},{"type":"Feature","id":"KS","properties":{"name":"Kansas"},"geometry":{"type":"Polygon","coordinates":[[[-101.91,40.0],[-95.31,40.0],[-95.21,39.91],[-94.88,39.83],[-95.11,39.54],[-94.98,39.44],[-94.82,39.21],[-94.61,39.16],[-94.62,37.0],[-100.09,37.0],[-102.04,36.99],[-102.05,40.0],[-101.91,40.0]]]}},{"type":"Feature","id":"KY","properties":{"name":"Kentucky"},"geometry":{"type":"Polygon","coordinates":[[[-83.9,38.77],[-83.68,38.63],[-83.52,38.7],[-83.14,38.63],[-83.03,38.73],[-82.89,38.76],[-82.85,38.59],[-82.73,38.56],[-82.59,38.42],[-82.62,38.12],[-82.5,37.93],[-82.34,37.78],[-82.29,37.67],[-82.1,37.55],[-81.97,37.54],[-82.35,37.27],[-82.72,37.12],[-82.72,37.04],[-82.87,36.98],[-82.88,36.89],[-83.07,36.85],[-83.14,36.74],[-83.67,36.6],[-83.69,36.58],[-84.54,36.59],[-85.29,36.63],[-85.49,36.62],[-86.59,36.66],[-87.85,36.63],[-88.07,36.68],[-88.05,36.5],[-89.3,36.51],[-89.42,36.5],[-89.36,36.62],[-89.22,36.58],[-89.13,36.98],[-89.18,37.04],[-89.03,37.21],[-88.91,37.22],[-88.55,37.07],[-88.42,37.15],[-88.51,37.29],[-88.48,37.39],[-88.07,37.48],[-88.16,37.66],[-88.03,37.8],[-87.93,37.89],[-87.68,37.9],[-87.6,37.98],[-87.51,37.9],[-87.38,37.94],[-87.13,37.79],[-87.05,37.89],[-86.8,37.99],[-86.73,37.89],[-86.5,37.93],[-86.52,38.04],[-86.3,38.17],[-86.26,38.05],[-86.04,37.96],[-85.92,38.02],[-85.83,38.28],[-85.66,38.33],[-85.59,38.45],[-85.42,38.53],[-85.43,38.73],[-85.17,38.69],[-84.99,38.78],[-84.81,38.79],[-84.89,39.06],[-84.82,39.1],[-84.43,39.1],[-84.23,38.9],[-84.22,38.81],[-83.9,38.77]]]}},{"type":"Feature","id":"LA","properties":{"name":"Louisiana"},"geometry":{"type":"Polygon","coordinates":[[[-93.61,33.02],[-91.17,33.0],[-91.07,32.89],[-91.14,32.84],[-91.15,32.64],[-91.01,32.51],[-90.99,32.22],[-91.11,31.99],[-91.34,31.85],[-91.4,31.62],[-91.5,31.64],[-91.52,31.28],[-91.64,31.27],[-91.57,31.07],[-91.64,31.0],[-89.75,31.0],[-89.85,30.67],[-89.68,30.45],[-89.64,30.29],[-89.52,30.18],[-89.82,30.04],[-89.84,29.95],[-89.6,29.88],[-89.5,30.04],[-89.29,29.88],[-89.3,29.75],[-89.42,29.7],[-89.65,29.75],[-89.62,29.66],[-89.7,29.51],[-89.51,29.39],[-89.2,29.35],[-89.09,29.2],[-89.0,29.18],[-89.16,29.01],[-89.34,29.04],[-89.48,29.22],[-89.85,29.31],[-89.85,29.48],[-90.03,29.43],[-90.02,29.28],[-90.1,29.15],[-90.23,29.13],[-90.33,29.28],[-90.56,29.28],[-90.65,29.13],[-90.8,29.09],[-90.96,29.18],[-91.09,29.19],[-91.22,29.44],[-91.45,29.55],[-91.53,29.53],[-91.62,29.74],[-91.88,29.71],[-91.89,29.84],[-92.15,29.72],[-92.11,29.62],[-92.31,29.54],[-92.62,29.58],[-92.97,29.72],[-93.23,29.78],[-93.77,29.73],[-93.84,29.69],[-93.93,29.79],[-93.69,30.14],[-93.77,30.33],[-93.7,30.44],[-93.73,30.58],[-93.63,30.68],[-93.53,30.94],[-93.54,31.15],[-93.82,31.56],[-93.82,31.78],[-94.04,31.99],[-94.04,33.02],[-93.61,33.02]]]}},{"type":"Feature","id":"ME","properties":{"name":"Maine"},"geometry":{"type":"Polygon","coordinates":[[[-70.7,43.06],[-70.82,43.13],[-70.81,43.23],[-70.97,43.34],[-71.03,44.66],[-71.08,45.3],[-70.65,45.44],[-70.72,45.51],[-70.56,45.66],[-70.39,45.74],[-70.42,45.8],[-70.26,45.89],[-70.31,46.06],[-70.21,46.33],[-70.06,46.42],[-70.0,46.69],[-69.23,47.46],[-69.04,47.43],[-69.03,47.24],[-68.9,47.18],[-68.58,47.29],[-68.38,47.29],[-68.23,47.36],[-67.95,47.2],[-67.79,47.07],[-67.78,45.94],[-67.8,45.68],[-67.46,45.6],[-67.51,45.49],[-67.42,45.38],[-67.49,45.28],[-67.35,45.13],[-67.16,45.16],[-66.98,44.8],[-67.19,44.65],[-67.31,44.71],[-67.41,44.6],[-67.55,44.62],[-67.57,44.53],[-67.75,44.54],[-68.05,44.33],[-68.12,44.48],[-68.22,44.49],[-68.17,44.33],[-68.4,44.25],[-68.46,44.38],[-68.57,44.31],[-68.83,44.31],[-68.83,44.46],[-68.98,44.43],[-68.96,44.32],[-69.1,44.1],[-69.07,44.04],[-69.26,43.92],[-69.44,43.97],[-69.55,43.84],[-69.71,43.82],[-69.83,43.72],[-69.99,43.74],[-70.03,43.85],[-70.25,43.68],[-70.19,43.57],[-70.36,43.53],[-70.37,43.44],[-70.56,43.32],[-70.7,43.06]]]}},{"type":"Feature","id":"MD","properties":{"name":"Maryland"},"geometry":{"type":"MultiPolygon","coordinates":[[[[-75.99,37.95],[-76.02,37.95],[-76.04,37.95],[-75.99,37.95]]],[[[-79.48,39.72],[-75.79,39.72],[-75.69,38.46],[-75.05,38.45],[-75.24,38.03],[-75.4,38.01],[-75.67,37.95],[-75.89,37.91],[-75.88,38.07],[-75.96,38.14],[-75.85,38.21],[-76.0,38.37],[-76.05,38.3],[-76.26,38.32],[-76.33,38.5],[-76.26,38.5],[-76.26,38.74],[-76.19,38.83],[-76.28,39.15],[-76.17,39.33],[-76.0,39.37],[-75.97,39.56],[-76.1,39.54],[-76.1,39.44],[-76.37,39.31],[-76.44,39.2],[-76.46,38.91],[-76.56,38.77],[-76.51,38.54],[-76.38,38.38],[-76.4,38.26],[-76.32,38.14],[-76.36,38.06],[-76.59,38.22],[-76.92,38.29],[-77.02,38.45],[-77.21,38.36],[-77.28,38.48],[-77.13,38.63],[-77.04,38.79],[-76.91,38.9],[-77.04,38.99],[-77.12,38.93],[-77.25,39.03],[-77.46,39.08],[-77.46,39.22],[-77.57,39.31],[-77.72,39.32],[-77.83,39.6],[-78.0,39.6],[-78.17,39.69],[-78.27,39.62],[-78.43,39.62],[-78.47,39.51],[-78.77,39.59],[-78.96,39.44],[-79.09,39.47],[-79.29,39.3],[-79.49,39.21],[-79.48,39.72]]]]}},{"type":"Feature","id":"MA","properties":{"name":"Massachusetts"},"geometry":{"type":"Polygon","coordinates":[[[-70.92,42.89],[-70.82,42.87],[-70.78,42.7],[-70.82,42.55],[-70.98,42.42],[-70.99,42.27],[-70.77,42.25],[-70.64,42.09],[-70.66,41.96],[-70.55,41.93],[-70.54,41.81],[-70.26,41.72],[-69.94,41.81],[-70.01,41.67],[-70.48,41.55],[-70.66,41.55],[-70.76,41.64],[-70.93,41.61],[-70.93,41.54],[-71.12,41.5],[-71.2,41.68],[-71.22,41.71],[-71.33,41.78],[-71.38,42.02],[-71.53,42.02],[-71.8,42.01],[-71.8,42.02],[-73.05,42.04],[-73.49,42.05],[-73.51,42.09],[-73.27,42.75],[-72.46,42.73],[-71.3,42.7],[-71.19,42.79],[-70.92,42.89]]]}},{"type":"Feature","id":"MI","properties":{"name":"Michigan"},"geometry":{"type":"MultiPolygon","coordinates":[[[[-83.45,41.73],[-84.81,41.69],[-84.81,41.76],[-85.99,41.76],[-86.82,41.76],[-86.62,41.89],[-86.48,42.12],[-86.36,42.25],[-86.26,42.44],[-86.21,42.72],[-86.23,43.01],[-86.53,43.59],[-86.43,43.81],[-86.5,44.08],[-86.27,44.34],[-86.22,44.57],[-86.25,44.69],[-86.09,44.74],[-86.07,44.9],[-85.81,44.95],[-85.61,45.13],[-85.63,44.77],[-85.52,44.75],[-85.39,44.93],[-85.39,45.24],[-85.31,45.31],[-85.03,45.36],[-85.12,45.58],[-84.94,45.76],[-84.71,45.77],[-84.46,45.65],[-84.22,45.64],[-84.1,45.49],[-83.91,45.48],[-83.6,45.35],[-83.49,45.36],[-83.32,45.14],[-83.45,45.03],[-83.32,44.88],[-83.27,44.71],[-83.33,44.34],[-83.54,44.25],[-83.59,44.05],[-83.83,43.99],[-83.96,43.76],[-83.91,43.67],[-83.67,43.59],[-83.48,43.71],[-83.26,43.97],[-82.92,44.07],[-82.75,43.99],[-82.64,43.85],[-82.54,43.44],[-82.52,43.23],[-82.41,42.98],[-82.52,42.61],[-82.68,42.56],[-82.69,42.69],[-82.8,42.65],[-82.92,42.35],[-83.13,42.24],[-83.19,42.01],[-83.44,41.81],[-83.45,41.73]]],[[[-85.51,45.73],[-85.49,45.61],[-85.62,45.59],[-85.57,45.76],[-85.51,45.73]]],[[[-87.59,45.1],[-87.74,45.2],[-87.65,45.34],[-87.89,45.36],[-87.79,45.5],[-87.78,45.68],[-87.99,45.8],[-88.1,45.92],[-88.53,46.02],[-88.66,45.99],[-89.09,46.14],[-90.12,46.34],[-90.23,46.51],[-90.42,46.57],[-90.03,46.67],[-89.85,46.79],[-89.41,46.84],[-89.13,46.99],[-89.0,47.0],[-88.89,47.1],[-88.58,47.25],[-88.42,47.37],[-88.18,47.46],[-87.96,47.38],[-88.35,47.08],[-88.44,46.97],[-88.44,46.79],[-88.25,46.93],[-87.9,46.91],[-87.63,46.81],[-87.39,46.54],[-87.26,46.49],[-87.01,46.53],[-86.95,46.47],[-86.7,46.44],[-86.16,46.67],[-85.88,46.69],[-85.51,46.68],[-85.26,46.75],[-85.06,46.76],[-85.03,46.48],[-84.83,46.44],[-84.63,46.49],[-84.55,46.42],[-84.42,46.5],[-84.13,46.53],[-84.12,46.18],[-83.99,46.03],[-83.79,45.99],[-83.77,46.09],[-83.58,46.09],[-83.48,45.99],[-83.56,45.91],[-84.11,45.98],[-84.37,45.93],[-84.66,46.05],[-84.74,45.94],[-84.7,45.85],[-84.83,45.87],[-85.02,46.01],[-85.34,46.09],[-85.5,46.1],[-85.66,45.97],[-85.92,45.93],[-86.21,45.96],[-86.32,45.91],[-86.35,45.8],[-86.66,45.7],[-86.65,45.83],[-86.78,45.86],[-86.84,45.73],[-87.07,45.72],[-87.17,45.66],[-87.33,45.42],[-87.61,45.12],[-87.59,45.1]]],[[[-88.81,47.98],[-89.06,47.85],[-89.19,47.83],[-89.18,47.94],[-88.55,48.17],[-88.67,48.01],[-88.81,47.98]]]]}},{"type":"Feature","id":"MN","properties":{"name":"Minnesota"},"geometry":{"type":"Polygon","coordinates":[[[-92.01,46.71],[-92.09,46.75],[-92.29,46.67],[-92.29,46.08],[-92.35,46.02],[-92.64,45.93],[-92.87,45.72],[-92.89,45.58],[-92.77,45.57],[-92.64,45.44],[-92.76,45.29],[-92.74,45.12],[-92.81,44.75],[-92.55,44.57],[-92.34,44.55],[-92.23,44.44],[-91.93,44.33],[-91.88,44.2],[-91.59,44.03],[-91.43,43.99],[-91.24,43.78],[-91.27,43.62],[-91.22,43.5],[-91.37,43.5],[-96.45,43.5],[-96.45,45.3],[-96.68,45.41],[-96.86,45.6],[-96.58,45.82],[-96.56,45.93],[-96.6,46.33],[-96.72,46.44],[-96.8,46.66],[-96.79,46.92],[-96.82,46.97],[-96.86,47.61],[-97.05,47.95],[-97.13,48.14],[-97.16,48.55],[-97.1,48.68],[-97.23,49.0],[-95.15,49.0],[-95.15,49.38],[-94.96,49.37],[-94.82,49.3],[-94.69,48.78],[-94.59,48.72],[-94.26,48.7],[-94.22,48.65],[-93.84,48.63],[-93.79,48.52],[-93.47,48.55],[-93.47,48.59],[-93.21,48.64],[-92.98,48.62],[-92.73,48.54],[-92.66,48.44],[-92.51,48.45],[-92.37,48.22],[-92.3,48.32],[-92.05,48.36],[-92.01,48.27],[-91.71,48.2],[-91.71,48.11],[-91.57,48.04],[-91.26,48.08],[-91.08,48.18],[-90.84,48.24],[-90.75,48.09],[-90.58,48.12],[-90.38,48.09],[-90.14,48.11],[-89.87,47.99],[-89.62,48.01],[-89.64,47.95],[-89.97,47.83],[-90.44,47.73],[-90.74,47.63],[-91.17,47.37],[-91.36,47.21],[-91.64,47.03],[-92.09,46.79],[-92.01,46.71]]]}},{"type":"Feature","id":"MS","properties":{"name":"Mississippi"},"geometry":{"type":"Polygon","coordinates":[[[-88.47,35.0],[-88.2,35.0],[-88.1,34.89],[-88.24,33.8],[-88.47,31.9],[-88.39,30.37],[-88.5,30.32],[-88.74,30.35],[-88.84,30.41],[-89.08,30.37],[-89.42,30.25],[-89.52,30.18],[-89.64,30.29],[-89.68,30.45],[-89.85,30.67],[-89.75,31.0],[-91.64,31.0],[-91.57,31.07],[-91.64,31.27],[-91.52,31.28],[-91.5,31.64],[-91.4,31.62],[-91.34,31.85],[-91.11,31.99],[-90.99,32.22],[-91.01,32.51],[-91.15,32.64],[-91.14,32.84],[-91.07,32.89],[-91.17,33.0],[-91.09,33.14],[-91.14,33.35],[-91.06,33.43],[-91.23,33.56],[-91.07,33.87],[-90.89,34.03],[-90.95,34.14],[-90.74,34.3],[-90.75,34.37],[-90.57,34.42],[-90.59,34.62],[-90.48,34.66],[-90.41,34.83],[-90.25,34.91],[-90.31,35.0],[-88.47,35.0]]]}},{"type":"Feature","id":"MO","properties":{"name":"Missouri"},"geometry":{"type":"Polygon","coordinates":[[[-91.83,40.61],[-91.73,40.62],[-91.53,40.41],[-91.42,40.38],[-91.51,40.24],[-91.49,40.03],[-91.37,39.73],[-91.06,39.47],[-90.73,39.26],[-90.66,38.93],[-90.59,38.87],[-90.47,38.96],[-90.25,38.92],[-90.11,38.85],[-90.21,38.73],[-90.18,38.63],[-90.35,38.37],[-90.36,38.22],[-90.06,38.01],[-89.95,37.88],[-89.84,37.9],[-89.52,37.69],[-89.52,37.54],[-89.44,37.35],[-89.52,37.28],[-89.29,36.99],[-89.13,36.98],[-89.22,36.58],[-89.36,36.62],[-89.42,36.5],[-89.48,36.5],[-89.54,36.5],[-89.53,36.25],[-89.73,36.0],[-90.38,36.0],[-90.22,36.18],[-90.06,36.3],[-90.15,36.5],[-94.47,36.5],[-94.62,36.5],[-94.62,37.0],[-94.61,39.16],[-94.82,39.21],[-94.98,39.44],[-95.11,39.54],[-94.88,39.83],[-95.21,39.91],[-95.31,40.0],[-95.55,40.26],[-95.77,40.59],[-94.63,40.57],[-93.26,40.58],[-91.83,40.61]]]}},{"type":"Feature","id":"MT","properties":{"name":"Montana"},"geometry":{"type":"Polygon","coordinates":[[[-104.05,49.0],[-104.04,47.86],[-104.05,45.94],[-104.04,45.0],[-104.06,45.0],[-105.92,45.0],[-109.08,45.0],[-111.05,45.0],[-111.05,44.48],[-111.23,44.58],[-111.39,44.76],[-111.62,44.55],[-111.82,44.51],[-111.87,44.56],[-112.1,44.52],[-112.24,44.57],[-112.47,44.48],[-112.78,44.49],[-112.89,44.39],[-113.0,44.45],[-113.13,44.77],[-113.34,44.78],[-113.46,44.87],[-113.45,45.06],[-113.57,45.13],[-113.74,45.33],[-113.83,45.52],[-113.81,45.6],[-113.99,45.7],[-114.09,45.59],[-114.33,45.46],[-114.55,45.56],[-114.5,45.67],[-114.57,45.77],[-114.39,45.88],[-114.49,46.04],[-114.46,46.27],[-114.32,46.65],[-114.61,46.64],[-114.62,46.71],[-114.89,46.81],[-114.93,46.92],[-115.3,47.19],[-115.32,47.26],[-115.53,47.3],[-115.72,47.42],[-115.72,47.7],[-116.05,47.98],[-116.05,49.0],[-111.5,48.99],[-109.45,49.0],[-104.05,49.0]]]}},{"type":"Feature","id":"NE","properties":{"name":"Nebraska"},"geometry":{"type":"Polygon","coordinates":[[[-103.32,43.0],[-101.63,43.0],[-98.5,43.0],[-98.47,42.95],[-97.95,42.77],[-97.83,42.87],[-97.69,42.84],[-97.22,42.84],[-96.69,42.66],[-96.63,42.52],[-96.45,42.49],[-96.26,42.04],[-96.13,41.97],[-96.06,41.8],[-96.12,41.68],[-96.1,41.54],[-95.92,41.45],[-95.93,41.2],[-95.83,40.98],[-95.88,40.72],[-95.77,40.59],[-95.55,40.26],[-95.31,40.0],[-101.91,40.0],[-102.05,40.0],[-102.05,41.0],[-104.05,41.0],[-104.05,43.0],[-103.32,43.0]]]}},{"type":"Feature","id":"NV","properties":{"name":"Nevada"},"geometry":{"type":"Polygon","coordinates":[[[-117.03,42.0],[-114.04,42.0],[-114.05,37.0],[-114.05,36.2],[-114.15,36.03],[-114.25,36.02],[-114.37,36.14],[-114.74,36.1],[-114.68,35.52],[-114.6,35.32],[-114.57,35.14],[-114.63,35.0],[-115.85,35.97],[-116.54,36.5],[-117.5,37.22],[-118.71,38.1],[-120.0,39.0],[-120.0,40.26],[-120.0,42.0],[-118.7,41.99],[-117.03,42.0]]]}},{"type":"Feature","id":"NH","properties":{"name":"New Hampshire"},"geometry":{"type":"Polygon","coordinates":[[[-71.08,45.3],[-71.03,44.66],[-70.97,43.34],[-70.81,43.23],[-70.82,43.13],[-70.7,43.06],[-70.82,42.87],[-70.92,42.89],[-71.19,42.79],[-71.3,42.7],[-72.46,42.73],[-72.54,42.81],[-72.53,42.95],[-72.45,43.01],[-72.46,43.15],[-72.38,43.57],[-72.2,43.77],[-72.12,43.99],[-72.03,44.08],[-72.03,44.32],[-71.7,44.42],[-71.54,44.59],[-71.63,44.75],[-71.49,44.91],[-71.5,45.01],[-71.36,45.27],[-71.13,45.24],[-71.08,45.3]]]}},{"type":"Feature","id":"NJ","properties":{"name":"New Jersey"},"geometry":{"type":"Polygon","coordinates":[[[-74.24,41.14],[-73.9,41.0],[-74.02,40.71],[-74.19,40.64],[-74.27,40.49],[-74.0,40.41],[-73.98,40.3],[-74.1,39.76],[-74.41,39.36],[-74.61,39.25],[-74.8,38.99],[-74.89,39.16],[-75.18,39.24],[-75.53,39.46],[-75.56,39.61],[-75.56,39.63],[-75.51,39.68],[-75.41,39.8],[-75.15,39.89],[-75.13,39.96],[-74.82,40.13],[-74.77,40.22],[-75.06,40.42],[-75.07,40.54],[-75.2,40.58],[-75.21,40.69],[-75.05,40.87],[-75.13,40.97],[-74.88,41.18],[-74.83,41.29],[-74.7,41.36],[-74.24,41.14]]]}},{"type":"Feature","id":"NM","properties":{"name":"New Mexico"},"geometry":{"type":"Polygon","coordinates":[[[-107.42,37.0],[-106.87,36.99],[-104.34,36.99],[-103.0,37.0],[-103.0,36.5],[-103.04,36.5],[-103.05,34.02],[-103.07,33.0],[-103.07,32.0],[-106.62,32.0],[-106.64,31.9],[-106.53,31.79],[-108.21,31.79],[-108.21,31.33],[-109.05,31.33],[-109.04,37.0],[-107.42,37.0]]]}},{"type":"Feature","id":"NY","properties":{"name":"New York"},"geometry":{"type":"Polygon","coordinates":[[[-73.34,45.01],[-73.33,44.8],[-73.39,44.62],[-73.29,44.44],[-73.32,44.25],[-73.44,44.04],[-73.35,43.77],[-73.4,43.69],[-73.25,43.52],[-73.28,42.83],[-73.27,42.75],[-73.51,42.09],[-73.49,42.05],[-73.55,41.29],[-73.48,41.21],[-73.73,41.1],[-73.66,40.99],[-73.23,40.91],[-73.14,40.97],[-72.77,40.97],[-72.59,41.0],[-72.28,41.16],[-72.26,41.04],[-72.1,40.99],[-72.47,40.85],[-73.24,40.63],[-73.56,40.58],[-73.78,40.59],[-73.94,40.54],[-74.02,40.71],[-73.9,41.0],[-74.24,41.14],[-74.7,41.36],[-74.74,41.43],[-74.89,41.44],[-75.07,41.61],[-75.05,41.75],[-75.17,41.87],[-75.25,41.86],[-75.36,42.0],[-79.76,42.0],[-79.76,42.25],[-79.76,42.27],[-79.15,42.55],[-79.05,42.69],[-78.85,42.78],[-78.93,42.95],[-79.01,42.99],[-79.07,43.26],[-78.49,43.38],[-77.97,43.37],[-77.76,43.34],[-77.53,43.23],[-77.39,43.28],[-76.96,43.27],[-76.7,43.34],[-76.42,43.52],[-76.24,43.53],[-76.23,43.8],[-76.14,43.96],[-76.36,44.07],[-76.31,44.2],[-75.91,44.37],[-75.76,44.51],[-75.28,44.85],[-74.83,45.02],[-74.15,44.99],[-73.34,45.01]]]}},{"type":"Feature","id":"NC","properties":{"name":"North Carolina"},"geometry":{"type":"Polygon","coordinates":[[[-80.98,36.56],[-80.29,36.55],[-79.51,36.54],[-75.87,36.55],[-75.75,36.15],[-76.03,36.19],[-76.07,36.14],[-76.41,36.08],[-76.46,36.03],[-76.68,36.01],[-76.67,35.94],[-76.4,35.99],[-76.36,35.94],[-76.06,35.99],[-75.96,35.9],[-75.78,35.94],[-75.72,35.7],[-75.78,35.58],[-75.9,35.57],[-76.15,35.32],[-76.48,35.31],[-76.54,35.14],[-76.39,34.97],[-76.28,34.94],[-76.49,34.66],[-76.67,34.69],[-76.99,34.67],[-77.21,34.61],[-77.56,34.42],[-77.83,34.16],[-77.97,33.85],[-78.18,33.92],[-78.54,33.85],[-79.68,34.8],[-80.8,34.82],[-80.78,34.94],[-80.93,35.11],[-81.04,35.04],[-81.04,35.15],[-82.28,35.2],[-82.55,35.16],[-82.76,35.07],[-83.11,35.0],[-83.62,34.98],[-84.32,34.99],[-84.29,35.23],[-84.1,35.25],[-84.02,35.41],[-83.77,35.56],[-83.5,35.57],[-83.25,35.72],[-82.99,35.77],[-82.78,36.0],[-82.64,36.06],[-82.61,35.97],[-82.22,36.16],[-82.04,36.12],[-81.91,36.3],[-81.72,36.35],[-81.68,36.59],[-80.98,36.56]]]}},{"type":"Feature","id":"ND","properties":{"name":"North Dakota"},"geometry":{"type":"Polygon","coordinates":[[[-97.23,49.0],[-97.1,48.68],[-97.16,48.55],[-97.13,48.14],[-97.05,47.95],[-96.86,47.61],[-96.82,46.97],[-96.79,46.92],[-96.8,46.66],[-96.72,46.44],[-96.6,46.33],[-96.56,45.93],[-104.05,45.94],[-104.04,47.86],[-104.05,49.0],[-97.23,49.0]]]}},{"type":"Feature","id":"OH","properties":{"name":"Ohio"},"geometry":{"type":"Polygon","coordinates":[[[-80.52,41.98],[-80.52,40.64],[-80.67,40.58],[-80.6,40.47],[-80.6,40.32],[-80.74,40.08],[-80.83,39.71],[-81.22,39.39],[-81.35,39.34],[-81.46,39.41],[-81.57,39.27],[-81.69,39.27],[-81.81,39.08],[-81.78,38.97],[-81.89,38.87],[-82.04,39.03],[-82.22,38.79],[-82.17,38.63],[-82.29,38.58],[-82.33,38.45],[-82.59,38.42],[-82.73,38.56],[-82.85,38.59],[-82.89,38.76],[-83.03,38.73],[-83.14,38.63],[-83.52,38.7],[-83.68,38.63],[-83.9,38.77],[-84.22,38.81],[-84.23,38.9],[-84.43,39.1],[-84.82,39.1],[-84.8,40.5],[-84.81,41.69],[-83.45,41.73],[-83.07,41.6],[-82.93,41.51],[-82.84,41.59],[-82.62,41.43],[-82.48,41.38],[-82.01,41.51],[-81.74,41.49],[-81.44,41.67],[-81.01,41.85],[-80.52,41.98],[-80.52,41.98]]]}},{"type":"Feature","id":"OK","properties":{"name":"Oklahoma"},"geometry":{"type":"Polygon","coordinates":[[[-100.09,37.0],[-94.62,37.0],[-94.62,36.5],[-94.43,35.4],[-94.48,33.64],[-94.87,33.75],[-94.97,33.86],[-95.22,33.96],[-95.29,33.87],[-95.55,33.88],[-95.6,33.93],[-95.84,33.83],[-95.94,33.89],[-96.15,33.84],[-96.35,33.69],[-96.42,33.77],[-96.63,33.85],[-96.85,33.85],[-96.92,33.96],[-97.17,33.74],[-97.26,33.86],[-97.37,33.82],[-97.46,33.91],[-97.69,33.98],[-97.87,33.85],[-97.95,33.99],[-98.09,34.0],[-98.17,34.11],[-98.36,34.16],[-98.49,34.06],[-98.57,34.15],[-98.77,34.14],[-98.99,34.22],[-99.19,34.21],[-99.26,34.4],[-99.58,34.42],[-99.7,34.38],[-99.92,34.57],[-100.0,34.56],[-100.0,36.5],[-101.81,36.5],[-103.0,36.5],[-103.0,37.0],[-102.04,36.99],[-100.09,37.0]]]}},{"type":"Feature","id":"OR","properties":{"name":"Oregon"},"geometry":{"type":"Polygon","coordinates":[[[-123.21,46.17],[-123.12,46.19],[-122.9,46.08],[-122.81,45.96],[-122.76,45.66],[-122.25,45.55],[-121.81,45.71],[-121.54,45.73],[-121.22,45.67],[-121.18,45.6],[-120.64,45.75],[-120.51,45.7],[-120.21,45.73],[-119.96,45.82],[-119.53,45.91],[-119.13,45.93],[-118.99,46.0],[-116.92,45.99],[-116.78,45.82],[-116.55,45.75],[-116.46,45.62],[-116.67,45.32],[-116.73,45.14],[-116.85,45.02],[-116.83,44.93],[-116.93,44.78],[-117.04,44.75],[-117.24,44.39],[-117.17,44.26],[-116.98,44.24],[-116.9,44.16],[-117.03,43.83],[-117.03,42.0],[-118.7,41.99],[-120.0,42.0],[-121.04,42.0],[-122.38,42.01],[-123.23,42.01],[-124.21,42.0],[-124.36,42.12],[-124.43,42.44],[-124.42,42.66],[-124.55,42.84],[-124.45,43.0],[-124.38,43.27],[-124.24,43.56],[-124.17,43.81],[-124.06,44.66],[-124.08,44.77],[-123.98,45.14],[-123.94,45.66],[-123.99,45.94],[-123.95,46.11],[-123.55,46.26],[-123.37,46.15],[-123.21,46.17]]]}},{"type":"Feature","id":"PA","properties":{"name":"Pennsylvania"},"geometry":{"type":"Polygon","coordinates":[[[-79.76,42.25],[-79.76,42.0],[-75.36,42.0],[-75.25,41.86],[-75.17,41.87],[-75.05,41.75],[-75.07,41.61],[-74.89,41.44],[-74.74,41.43],[-74.7,41.36],[-74.83,41.29],[-74.88,41.18],[-75.13,40.97],[-75.05,40.87],[-75.21,40.69],[-75.2,40.58],[-75.07,40.54],[-75.06,40.42],[-74.77,40.22],[-74.82,40.13],[-75.13,39.96],[-75.15,39.89],[-75.41,39.8],[-75.62,39.83],[-75.79,39.72],[-79.48,39.72],[-80.52,39.72],[-80.52,40.64],[-80.52,41.98],[-80.52,41.98],[-80.33,42.03],[-79.76,42.27],[-79.76,42.25]]]}},{"type":"Feature","id":"RI","properties":{"name":"Rhode Island"},"geometry":{"type":"MultiPolygon","coordinates":[[[[-71.2,41.68],[-71.12,41.5],[-71.32,41.47],[-71.2,41.68]]],[[[-71.53,42.02],[-71.38,42.02],[-71.33,41.78],[-71.22,41.71],[-71.34,41.73],[-71.45,41.58],[-71.48,41.37],[-71.86,41.32],[-71.8,41.41],[-71.8,42.01],[-71.53,42.02]]]]}},{"type":"Feature","id":"SC","properties":{"name":"South Carolina"},"geometry":{"type":"Polygon","coordinates":[[[-82.76,35.07],[-82.55,35.16],[-82.28,35.2],[-81.04,35.15],[-81.04,35.04],[-80.93,35.11],[-80.78,34.94],[-80.8,34.82],[-79.68,34.8],[-78.54,33.85],[-78.72,33.8],[-78.94,33.64],[-79.15,33.38],[-79.19,33.17],[-79.36,33.01],[-79.58,33.01],[-79.63,32.89],[-79.87,32.76],[-80.0,32.61],[-80.21,32.55],[-80.43,32.4],[-80.45,32.33],[-80.66,32.25],[-80.89,32.03],[-81.12,32.12],[-81.12,32.29],[-81.28,32.56],[-81.42,32.63],[-81.43,32.84],[-81.49,33.01],[-81.76,33.16],[-81.94,33.35],[-81.93,33.46],[-82.19,33.63],[-82.33,33.82],[-82.56,33.94],[-82.71,34.15],[-82.75,34.27],[-82.9,34.49],[-83.01,34.47],[-83.34,34.68],[-83.32,34.79],[-83.11,35.0],[-82.76,35.07]]]}},{"type":"Feature","id":"SD","properties":{"name":"South Dakota"},"geometry":{"type":"Polygon","coordinates":[[[-104.05,45.94],[-96.56,45.93],[-96.58,45.82],[-96.86,45.6],[-96.68,45.41],[-96.45,45.3],[-96.45,43.5],[-96.58,43.48],[-96.53,43.4],[-96.56,43.22],[-96.43,43.12],[-96.51,43.05],[-96.54,42.86],[-96.63,42.71],[-96.45,42.49],[-96.63,42.52],[-96.69,42.66],[-97.22,42.84],[-97.69,42.84],[-97.83,42.87],[-97.95,42.77],[-98.47,42.95],[-98.5,43.0],[-101.63,43.0],[-103.32,43.0],[-104.05,43.0],[-104.06,45.0],[-104.04,45.0],[-104.05,45.94]]]}},{"type":"Feature","id":"TN","properties":{"name":"Tennessee"},"geometry":{"type":"Polygon","coordinates":[[[-88.05,36.5],[-88.07,36.68],[-87.85,36.63],[-86.59,36.66],[-85.49,36.62],[-85.29,36.63],[-84.54,36.59],[-83.69,36.58],[-83.67,36.6],[-81.68,36.59],[-81.72,36.35],[-81.91,36.3],[-82.04,36.12],[-82.22,36.16],[-82.61,35.97],[-82.64,36.06],[-82.78,36.0],[-82.99,35.77],[-83.25,35.72],[-83.5,35.57],[-83.77,35.56],[-84.02,35.41],[-84.1,35.25],[-84.29,35.23],[-84.32,34.99],[-85.61,34.98],[-87.36,35.0],[-88.2,35.0],[-88.47,35.0],[-90.31,35.0],[-90.21,35.02],[-90.11,35.2],[-90.13,35.44],[-89.94,35.6],[-89.91,35.76],[-89.76,35.81],[-89.73,36.0],[-89.53,36.25],[-89.54,36.5],[-89.48,36.5],[-89.42,36.5],[-89.3,36.51],[-88.05,36.5]]]}},{"type":"Feature","id":"TX","properties":{"name":"Texas"},"geometry":{"type":"Polygon","coordinates":[[[-101.81,36.5],[-100.0,36.5],[-100.0,34.56],[-99.92,34.57],[-99.7,34.38],[-99.58,34.42],[-99.26,34.4],[-99.19,34.21],[-98.99,34.22],[-98.77,34.14],[-98.57,34.15],[-98.49,34.06],[-98.36,34.16],[-98.17,34.11],[-98.09,34.0],[-97.95,33.99],[-97.87,33.85],[-97.69,33.98],[-97.46,33.91],[-97.37,33.82],[-97.26,33.86],[-97.17,33.74],[-96.92,33.96],[-96.85,33.85],[-96.63,33.85],[-96.42,33.77],[-96.35,33.69],[-96.15,33.84],[-95.94,33.89],[-95.84,33.83],[-95.6,33.93],[-95.55,33.88],[-95.29,33.87],[-95.22,33.96],[-94.97,33.86],[-94.87,33.75],[-94.48,33.64],[-94.38,33.54],[-94.18,33.59],[-94.04,33.55],[-94.04,33.02],[-94.04,31.99],[-93.82,31.78],[-93.82,31.56],[-93.54,31.15],[-93.53,30.94],[-93.63,30.68],[-93.73,30.58],[-93.7,30.44],[-93.77,30.33],[-93.69,30.14],[-93.93,29.79],[-93.84,29.69],[-94.0,29.68],[-94.52,29.55],[-94.71,29.62],[-94.74,29.79],[-94.87,29.67],[-94.97,29.7],[-95.02,29.56],[-94.91,29.5],[-94.9,29.31],[-95.08,29.11],[-95.38,28.87],[-95.99,28.6],[-96.05,28.65],[-96.23,28.58],[-96.23,28.64],[-96.48,28.6],[-96.59,28.72],[-96.66,28.7],[-96.4,28.44],[-96.59,28.36],[-96.77,28.41],[-96.8,28.23],[-97.03,28.04],[-97.26,27.69],[-97.4,27.33],[-97.51,27.36],[-97.54,27.23],[-97.43,27.26],[-97.48,27.0],[-97.56,26.99],[-97.56,26.84],[-97.47,26.76],[-97.44,26.46],[-97.33,26.35],[-97.31,26.16],[-97.22,25.99],[-97.52,25.89],[-97.65,26.02],[-97.89,26.07],[-98.2,26.06],[-98.47,26.22],[-98.67,26.24],[-98.82,26.37],[-99.03,26.41],[-99.17,26.54],[-99.27,26.84],[-99.45,27.02],[-99.42,27.17],[-99.51,27.34],[-99.48,27.48],[-99.61,27.64],[-99.71,27.66],[-99.88,27.8],[-99.93,27.98],[-100.08,28.14],[-100.3,28.28],[-100.4,28.58],[-100.5,28.66],[-100.63,28.91],[-100.67,29.1],[-100.8,29.24],[-101.01,29.37],[-101.06,29.46],[-101.26,29.54],[-101.41,29.75],[-101.85,29.8],[-102.11,29.79],[-102.34,29.87],[-102.39,29.77],[-102.63,29.73],[-102.81,29.52],[-102.92,29.19],[-102.98,29.18],[-103.12,28.99],[-103.28,28.98],[-103.53,29.14],[-104.15,29.38],[-104.27,29.51],[-104.51,29.64],[-104.68,29.92],[-104.69,30.18],[-104.86,30.39],[-104.9,30.57],[-105.01,30.69],[-105.39,30.86],[-105.6,31.09],[-105.77,31.17],[-105.95,31.36],[-106.21,31.47],[-106.38,31.73],[-106.53,31.79],[-106.64,31.9],[-106.62,32.0],[-103.07,32.0],[-103.07,33.0],[-103.05,34.02],[-103.04,36.5],[-103.0,36.5],[-101.81,36.5]]]}},{"type":"Feature","id":"UT","properties":{"name":"Utah"},"geometry":{"type":"Polygon","coordinates":[[[-112.16,42.0],[-111.05,42.0],[-111.05,41.0],[-109.05,41.0],[-109.05,39.13],[-109.06,38.28],[-109.04,38.17],[-109.04,37.0],[-110.5,37.01],[-114.05,37.0],[-114.04,42.0],[-112.16,42.0]]]}},{"type":"Feature","id":"VT","properties":{"name":"Vermont"},"geometry":{"type":"Polygon","coordinates":[[[-71.5,45.01],[-71.49,44.91],[-71.63,44.75],[-71.54,44.59],[-71.7,44.42],[-72.03,44.32],[-72.03,44.08],[-72.12,43.99],[-72.2,43.77],[-72.38,43.57],[-72.46,43.15],[-72.45,43.01],[-72.53,42.95],[-72.54,42.81],[-72.46,42.73],[-73.27,42.75],[-73.28,42.83],[-73.25,43.52],[-73.4,43.69],[-73.35,43.77],[-73.44,44.04],[-73.32,44.25],[-73.29,44.44],[-73.39,44.62],[-73.33,44.8],[-73.34,45.01],[-72.31,45.0],[-71.5,45.01]]]}},{"type":"Feature","id":"VA","properties":{"name":"Virginia"},"geometry":{"type":"MultiPolygon","coordinates":[[[[-75.4,38.01],[-75.24,38.03],[-75.38,37.86],[-75.51,37.8],[-75.59,37.57],[-75.8,37.2],[-75.97,37.12],[-76.03,37.26],[-75.94,37.56],[-75.67,37.95],[-75.4,38.01]]],[[[-76.02,37.95],[-75.99,37.95],[-76.04,37.95],[-76.02,37.95]]],[[[-78.35,39.46],[-77.83,39.13],[-77.72,39.32],[-77.57,39.31],[-77.46,39.22],[-77.46,39.08],[-77.25,39.03],[-77.12,38.93],[-77.04,38.79],[-77.13,38.63],[-77.25,38.59],[-77.33,38.45],[-77.28,38.34],[-77.01,38.37],[-76.96,38.22],[-76.61,38.15],[-76.51,38.02],[-76.24,37.89],[-76.36,37.61],[-76.25,37.39],[-76.38,37.29],[-76.4,37.16],[-76.27,37.08],[-76.41,36.96],[-76.62,37.12],[-76.67,37.07],[-76.49,36.95],[-75.99,36.92],[-75.87,36.55],[-79.51,36.54],[-80.29,36.55],[-80.98,36.56],[-81.68,36.59],[-83.67,36.6],[-83.14,36.74],[-83.07,36.85],[-82.88,36.89],[-82.87,36.98],[-82.72,37.04],[-82.72,37.12],[-82.35,37.27],[-81.97,37.54],[-81.99,37.45],[-81.85,37.29],[-81.68,37.2],[-81.55,37.21],[-81.36,37.34],[-81.23,37.24],[-80.97,37.29],[-80.51,37.48],[-80.47,37.42],[-80.3,37.51],[-80.29,37.69],[-80.18,37.85],[-80.0,38.0],[-79.92,38.18],[-79.72,38.36],[-79.65,38.59],[-79.48,38.46],[-79.31,38.41],[-79.21,38.5],[-79.0,38.85],[-78.87,38.76],[-78.4,39.17],[-78.35,39.46]]]]}},{"type":"Feature","id":"WA","properties":{"name":"Washington"},"geometry":{"type":"MultiPolygon","coordinates":[[[[-117.03,49.0],[-117.04,47.76],[-117.04,46.43],[-117.06,46.34],[-116.92,46.17],[-116.92,45.99],[-118.99,46.0],[-119.13,45.93],[-119.53,45.91],[-119.96,45.82],[-120.21,45.73],[-120.51,45.7],[-120.64,45.75],[-121.18,45.6],[-121.22,45.67],[-121.54,45.73],[-121.81,45.71],[-122.25,45.55],[-122.76,45.66],[-122.81,45.96],[-122.9,46.08],[-123.12,46.19],[-123.21,46.17],[-123.37,46.15],[-123.55,46.26],[-123.73,46.3],[-123.87,46.24],[-124.07,46.33],[-124.03,46.46],[-123.9,46.54],[-124.1,46.74],[-124.24,47.29],[-124.32,47.36],[-124.43,47.74],[-124.62,47.89],[-124.71,48.18],[-124.6,48.38],[-124.39,48.29],[-123.98,48.16],[-123.7,48.17],[-123.42,48.12],[-123.16,48.17],[-123.04,48.08],[-122.8,48.09],[-122.64,47.87],[-122.52,47.88],[-122.49,47.59],[-122.42,47.32],[-122.32,47.35],[-122.42,47.58],[-122.4,47.8],[-122.23,48.03],[-122.36,48.12],[-122.37,48.29],[-122.47,48.47],[-122.42,48.6],[-122.49,48.75],[-122.65,48.78],[-122.8,48.89],[-122.76,49.0],[-117.03,49.0]]],[[[-122.72,48.31],[-122.59,48.35],[-122.61,48.15],[-122.77,48.23],[-122.72,48.31]]],[[[-123.03,48.58],[-122.92,48.72],[-122.77,48.56],[-122.81,48.42],[-123.04,48.46],[-123.03,48.58]]]]}},{"type":"Feature","id":"WV","properties":{"name":"West Virginia"},"geometry":{"type":"Polygon","coordinates":[[[-80.52,40.64],[-80.52,39.72],[-79.48,39.72],[-79.49,39.21],[-79.29,39.3],[-79.09,39.47],[-78.96,39.44],[-78.77,39.59],[-78.47,39.51],[-78.43,39.62],[-78.27,39.62],[-78.17,39.69],[-78.0,39.6],[-77.83,39.6],[-77.72,39.32],[-77.83,39.13],[-78.35,39.46],[-78.4,39.17],[-78.87,38.76],[-79.0,38.85],[-79.21,38.5],[-79.31,38.41],[-79.48,38.46],[-79.65,38.59],[-79.72,38.36],[-79.92,38.18],[-80.0,38.0],[-80.18,37.85],[-80.29,37.69],[-80.3,37.51],[-80.47,37.42],[-80.51,37.48],[-80.97,37.29],[-81.23,37.24],[-81.36,37.34],[-81.55,37.21],[-81.68,37.2],[-81.85,37.29],[-81.99,37.45],[-81.97,37.54],[-82.1,37.55],[-82.29,37.67],[-82.34,37.78],[-82.5,37.93],[-82.62,38.12],[-82.59,38.42],[-82.33,38.45],[-82.29,38.58],[-82.17,38.63],[-82.22,38.79],[-82.04,39.03],[-81.89,38.87],[-81.78,38.97],[-81.81,39.08],[-81.69,39.27],[-81.57,39.27],[-81.46,39.41],[-81.35,39.34],[-81.22,39.39],[-80.83,39.71],[-80.74,40.08],[-80.6,40.32],[-80.6,40.47],[-80.67,40.58],[-80.52,40.64]]]}},{"type":"Feature","id":"WI","properties":{"name":"Wisconsin"},"geometry":{"type":"Polygon","coordinates":[[[-90.42,46.57],[-90.23,46.51],[-90.12,46.34],[-89.09,46.14],[-88.66,45.99],[-88.53,46.02],[-88.1,45.92],[-87.99,45.8],[-87.78,45.68],[-87.79,45.5],[-87.89,45.36],[-87.65,45.34],[-87.74,45.2],[-87.59,45.1],[-87.63,44.97],[-87.82,44.95],[-87.98,44.72],[-88.04,44.56],[-87.93,44.54],[-87.78,44.64],[-87.61,44.84],[-87.4,44.91],[-87.24,45.17],[-87.03,45.22],[-87.05,45.09],[-87.19,44.97],[-87.47,44.55],[-87.55,44.32],[-87.54,44.16],[-87.64,44.1],[-87.74,43.88],[-87.7,43.69],[-87.79,43.56],[-87.91,43.25],[-87.89,43.0],[-87.76,42.78],[-87.8,42.49],[-88.79,42.49],[-90.64,42.51],[-90.71,42.64],[-91.07,42.75],[-91.14,42.91],[-91.18,43.13],[-91.06,43.25],[-91.2,43.35],[-91.22,43.5],[-91.27,43.62],[-91.24,43.78],[-91.43,43.99],[-91.59,44.03],[-91.88,44.2],[-91.93,44.33],[-92.23,44.44],[-92.34,44.55],[-92.55,44.57],[-92.81,44.75],[-92.74,45.12],[-92.76,45.29],[-92.64,45.44],[-92.77,45.57],[-92.89,45.58],[-92.87,45.72],[-92.64,45.93],[-92.35,46.02],[-92.29,46.08],[-92.29,46.67],[-92.09,46.75],[-92.01,46.71],[-91.79,46.69],[-91.09,46.86],[-90.84,46.96],[-90.75,46.89],[-90.89,46.75],[-90.56,46.58],[-90.42,46.57]]]}},{"type":"Feature","id":"WY","properties":{"name":"Wyoming"},"geometry":{"type":"Polygon","coordinates":[[[-109.08,45.0],[-105.92,45.0],[-104.06,45.0],[-104.05,43.0],[-104.05,41.0],[-105.73,41.0],[-107.92,41.0],[-109.05,41.0],[-111.05,41.0],[-111.05,42.0],[-111.05,44.48],[-111.05,45.0],[-109.08,45.0]]]}},{"type":"Feature","id":"PR","properties":{"name":"Puerto Rico"},"geometry":{"type":"MultiPolygon","coordinates":[[[[-65.629,18.279],[-65.633,18.267],[-65.626,18.26],[-65.618,18.256],[-65.604,18.263],[-65.607,18.254],[-65.604,18.246],[-65.592,18.231],[-65.602,18.224],[-65.604,18.215],[-65.612,18.215],[-65.622,18.229],[-65.633,18.229],[-65.637,18.219],[-65.627,18.206],[-65.637,18.198],[-65.649,18.2],[-65.666,18.208],[-65.683,18.203],[-65.701,18.194],[-65.721,18.19],[-65.738,18.183],[-65.755,18.166],[-65.79,18.114],[-65.793,18.088],[-65.807,18.07],[-65.812,18.067],[-65.835,18.062],[-65.84,18.056],[-65.83,18.027],[-65.85,18.01],[-65.887,17.988],[-65.939,17.971],[-65.962,17.971],[-65.985,17.976],[-66.005,17.978],[-66.017,17.975],[-66.047,17.964],[-66.054,17.963],[-66.084,17.964],[-66.105,17.959],[-66.163,17.929],[-66.176,17.928],[-66.187,17.929],[-66.196,17.928],[-66.204,17.923],[-66.209,17.929],[-66.21,17.932],[-66.21,17.937],[-66.2,17.94],[-66.197,17.944],[-66.201,17.951],[-66.21,17.957],[-66.23,17.94],[-66.241,17.937],[-66.256,17.941],[-66.283,17.943],[-66.293,17.946],[-66.298,17.951],[-66.301,17.958],[-66.307,17.964],[-66.319,17.97],[-66.328,17.972],[-66.344,17.971],[-66.368,17.966],[-66.396,17.947],[-66.416,17.95],[-66.436,17.964],[-66.452,17.982],[-66.469,17.993],[-66.488,17.989],[-66.502,17.987],[-66.513,17.982],[-66.527,17.979],[-66.56,17.978],[-66.57,17.972],[-66.581,17.966],[-66.593,17.964],[-66.608,17.971],[-66.615,17.967],[-66.623,17.964],[-66.629,17.975],[-66.647,17.977],[-66.687,17.971],[-66.695,17.973],[-66.725,17.984],[-66.766,17.984],[-66.765,17.998],[-66.774,18.002],[-66.787,17.999],[-66.8,17.992],[-66.8,17.984],[-66.786,17.984],[-66.798,17.969],[-66.818,17.959],[-66.841,17.953],[-66.861,17.95],[-66.893,17.951],[-66.908,17.949],[-66.919,17.95],[-66.924,17.95],[-66.928,17.946],[-66.93,17.939],[-66.93,17.929],[-66.949,17.931],[-66.963,17.941],[-66.986,17.964],[-67.006,17.965],[-67.029,17.969],[-67.053,17.968],[-67.067,17.973],[-67.081,17.961],[-67.097,17.953],[-67.112,17.95],[-67.124,17.951],[-67.159,17.955],[-67.18,17.966],[-67.191,17.958],[-67.184,17.935],[-67.195,17.936],[-67.21,17.957],[-67.215,17.966],[-67.214,17.994],[-67.191,18.005],[-67.183,18.009],[-67.174,18.011],[-67.166,18.015],[-67.163,18.023],[-67.167,18.028],[-67.177,18.033],[-67.19,18.03],[-67.203,18.036],[-67.202,18.054],[-67.195,18.064],[-67.186,18.07],[-67.19,18.081],[-67.194,18.097],[-67.183,18.108],[-67.184,18.14],[-67.174,18.176],[-67.166,18.184],[-67.158,18.192],[-67.152,18.203],[-67.158,18.214],[-67.171,18.225],[-67.187,18.273],[-67.197,18.291],[-67.219,18.296],[-67.237,18.3],[-67.253,18.329],[-67.263,18.344],[-67.271,18.362],[-67.269,18.369],[-67.24,18.377],[-67.217,18.386],[-67.198,18.394],[-67.184,18.402],[-67.159,18.421],[-67.158,18.443],[-67.169,18.461],[-67.17,18.486],[-67.152,18.509],[-67.102,18.523],[-67.048,18.521],[-67.012,18.506],[-66.907,18.485],[-66.803,18.498],[-66.789,18.497],[-66.752,18.484],[-66.737,18.483],[-66.698,18.491],[-66.641,18.496],[-66.614,18.493],[-66.588,18.484],[-66.571,18.487],[-66.507,18.486],[-66.467,18.475],[-66.382,18.491],[-66.304,18.469],[-66.258,18.482],[-66.205,18.465],[-66.194,18.474],[-66.181,18.472],[-66.174,18.463],[-66.17,18.457],[-66.162,18.453],[-66.152,18.459],[-66.144,18.469],[-66.134,18.466],[-66.137,18.453],[-66.118,18.443],[-66.115,18.433],[-66.108,18.421],[-66.093,18.42],[-66.06,18.429],[-66.06,18.437],[-66.077,18.439],[-66.095,18.448],[-66.109,18.461],[-66.122,18.473],[-66.056,18.454],[-66.04,18.451],[-66.028,18.447],[-66.012,18.444],[-65.998,18.45],[-65.989,18.463],[-65.966,18.458],[-65.92,18.446],[-65.905,18.456],[-65.893,18.454],[-65.881,18.445],[-65.848,18.438],[-65.831,18.429],[-65.813,18.41],[-65.802,18.415],[-65.794,18.425],[-65.788,18.423],[-65.787,18.418],[-65.792,18.413],[-65.796,18.405],[-65.789,18.407],[-65.778,18.411],[-65.772,18.415],[-65.755,18.391],[-65.738,18.382],[-65.725,18.391],[-65.698,18.371],[-65.663,18.366],[-65.646,18.378],[-65.638,18.386],[-65.629,18.391],[-65.621,18.389],[-65.621,18.382],[-65.631,18.333],[-65.633,18.291],[-65.629,18.279]]],[[[-65.348,18.115],[-65.357,18.123],[-65.371,18.12],[-65.39,18.112],[-65.469,18.094],[-65.484,18.087],[-65.505,18.094],[-65.536,18.09],[-65.565,18.094],[-65.58,18.122],[-65.565,18.123],[-65.56,18.122],[-65.54,18.124],[-65.52,18.131],[-65.502,18.141],[-65.488,18.152],[-65.479,18.157],[-65.399,18.169],[-65.386,18.167],[-65.351,18.156],[-65.299,18.154],[-65.286,18.149],[-65.276,18.137],[-65.283,18.133],[-65.31,18.135],[-65.317,18.133],[-65.336,18.12],[-65.341,18.115],[-65.348,18.115]]],[[[-67.856,18.115],[-67.844,18.105],[-67.844,18.098],[-67.85,18.091],[-67.86,18.073],[-67.864,18.069],[-67.868,18.064],[-67.869,18.056],[-67.873,18.053],[-67.883,18.053],[-67.892,18.053],[-67.896,18.056],[-67.903,18.065],[-67.931,18.081],[-67.938,18.094],[-67.931,18.109],[-67.92,18.114],[-67.862,18.116],[-67.856,18.115]]]]}},{"type":"Feature","id":"GU","properties":{"name":"Guam"},"geometry":{"type":"Polygon","coordinates":[[[144.886,13.64],[144.897,13.618],[144.914,13.605],[144.934,13.6],[144.952,13.599],[144.952,13.587],[144.938,13.561],[144.907,13.517],[144.872,13.485],[144.808,13.446],[144.783,13.42],[144.769,13.379],[144.76,13.286],[144.736,13.249],[144.718,13.242],[144.698,13.241],[144.681,13.247],[144.67,13.265],[144.657,13.282],[144.654,13.287],[144.647,13.325],[144.644,13.332],[144.639,13.337],[144.634,13.342],[144.626,13.345],[144.637,13.355],[144.643,13.366],[144.646,13.378],[144.647,13.396],[144.646,13.404],[144.64,13.415],[144.635,13.424],[144.624,13.431],[144.629,13.439],[144.636,13.443],[144.641,13.438],[144.654,13.439],[144.715,13.473],[144.729,13.486],[144.783,13.517],[144.794,13.527],[144.803,13.539],[144.811,13.554],[144.832,13.621],[144.839,13.633],[144.85,13.644],[144.867,13.653],[144.881,13.654],[144.886,13.64]]]}}]}