{"type": "FeatureCollection", "features": [{"type": "Feature", "id": "US", "properties": {"note": "dissolved lower-48 + HI outline for the map silhouette mask"}, "geometry": {"type": "MultiPolygon", "coordinates": [[[[-124.7099732618257, 48.179997291264286], [-124.59998985213483, 48.37997052061734], [-124.3890665565935, 48.289704030139404], [-123.98108674087418, 48.160481358364514], [-123.70000198880152, 48.16997183875457], [-123.42000226373428, 48.12034093341088], [-123.16000652876677, 48.16997170319657], [-123.03869277124592, 48.08091123688173], [-122.80001164540768, 48.0899759031708], [-122.64229983185955, 47.87475770732775], [-122.52002006078061, 47.87997580671057], [-122.48994407224008, 47.590010083448526], [-122.42461103462533, 47.338187831119704], [-122.40605565271937, 47.32512585736825], [-122.3379068570445, 47.345039040090526], [-122.32732480357303, 47.36293575644339], [-122.41997474056203, 47.58000406945374], [-122.39998015385437, 47.799992448536926], [-122.2386148247245, 48.02857107423555], [-122.3599759708781, 48.120013504182666], [-122.37076240367129, 48.29071184794056], [-122.46997457594968, 48.470001781633755], [-122.42173054551581, 48.59993987975997], [-122.4865395382215, 48.742371998955015], [-122.6499923544294, 48.780018764249895], [-122.79997172239162, 48.890008581437066], [-122.75998244752043, 48.99997494032508], [-95.16999999966674, 49.0], [-95.15009630546452, 49.01803965721414], [-95.1499782752295, 49.37997710175163], [-94.96000681876319, 49.36997417179295], [-94.82001929177251, 49.29998452468785], [-94.69144034791098, 48.7861584692549], [-94.5889021768741, 48.72030147645724], [-94.26001064046378, 48.69997947615606], [-94.21290371147148, 48.64971440112469], [-93.84001576633564, 48.62997687390733], [-93.77962189829996, 48.52133598628425], [-93.48618424154225, 48.54858007276419], [-93.4699766096324, 48.58998067919239], [-93.20999792225595, 48.639978811194226], [-92.98000612654458, 48.619969498164565], [-92.73001331050209, 48.539981930447404], [-92.65682760998648, 48.44187799624739], [-92.51001286597582, 48.44997520932888], [-92.37714660260337, 48.23835601104619], [-92.35366314445358, 48.24350983829204], [-92.29998582739576, 48.31997736230806], [-92.0500147410756, 48.35997282047792], [-92.00418275601933, 48.26907345323666], [-91.71002213627521, 48.199982434243154], [-91.7052380723669, 48.10940687143378], [-91.56984826899131, 48.04089648468811], [-91.26193814452633, 48.079840261873485], [-91.07999221639902, 48.17998255748378], [-90.84001106876883, 48.2399732776282], [-90.74442937331575, 48.09259956341283], [-90.57999962302087, 48.11997075831096], [-90.37999555108736, 48.09013528202954], [-90.1400042766079, 48.109974713628894], [-89.8708701073332, 47.99081960668538], [-89.62003231068486, 48.00997469296231], [-89.64001945908885, 47.950018940273274], [-89.96934596348326, 47.83023783146063], [-90.43890228852798, 47.73023355563234], [-90.74190827538985, 47.6288461590666], [-91.16996443998441, 47.36995038539492], [-91.36054087637187, 47.20965229376094], [-91.63965767659954, 47.03022006504315], [-92.06786808882478, 46.80169443256658], [-92.07340159160438, 46.773945598430096], [-92.00668090127715, 46.710092600417845], [-91.78677472901688, 46.6907832800959], [-91.09138476879448, 46.85966369900706], [-90.84000352025227, 46.95997506826358], [-90.75003551903221, 46.889997788665035], [-90.87195415217909, 46.76790742758511], [-90.87044403243874, 46.74091017640614], [-90.56180355037155, 46.58104397438574], [-90.4189566272787, 46.57038657740377], [-90.03115526464107, 46.66983391123726], [-89.8499921156433, 46.789978439325296], [-89.41193971169322, 46.83986970139716], [-89.1299923603263, 46.98997385512476], [-89.0013289632019, 47.00069738623428], [-88.88998711960325, 47.099980938019094], [-88.58004854966819, 47.250079707688194], [-88.4199891340994, 47.369980163689114], [-88.17999986622051, 47.45997324342952], [-87.96004453733426, 47.37999311103268], [-88.351458866722, 47.0782169406731], [-88.43914251980108, 46.968654171455405], [-88.43989955412104, 46.827577903903645], [-88.42718791148896, 46.81091613323162], [-88.24999271900812, 46.92997550917275], [-87.9000050542518, 46.90997579993514], [-87.63001377574997, 46.80997983938499], [-87.38546175735063, 46.53825452205793], [-87.25887758787141, 46.490625957533034], [-87.0100075371826, 46.529976740603516], [-86.94684467678236, 46.46998491289682], [-86.70322201857968, 46.44049635320002], [-86.15999279806684, 46.66997018071635], [-85.87950844087732, 46.68998671461831], [-85.51102306627108, 46.68012762303062], [-85.25999499403478, 46.74996927008383], [-85.06002174741695, 46.75997454698406], [-85.0210854904159, 46.47908226831706], [-84.82912813655594, 46.44053987298796], [-84.63000600585481, 46.48997512698836], [-84.54666621852552, 46.42479988288956], [-84.41999302372906, 46.49998086214396], [-84.13002158327339, 46.529975370478056], [-84.11971041789195, 46.18325428401941], [-83.99176131370874, 46.03257249610073], [-83.80374976871579, 45.99362820201656], [-83.78655656743149, 46.00770822629584], [-83.76998102031615, 46.08997684850759], [-83.58000979155348, 46.08997636109877], [-83.48034716994327, 45.99034716994328], [-83.5600090341005, 45.91002642647229], [-84.10893684463649, 45.97975253609349], [-84.36999755017118, 45.930024130876596], [-84.65477305354908, 46.04542554072448], [-84.73642284784725, 45.942483643651016], [-84.70003608565258, 45.85002758141876], [-84.82999090386943, 45.870021889452936], [-85.02196676707425, 46.01039375706714], [-85.34001280029057, 46.089917375140956], [-85.49406435375585, 46.0995422546465], [-85.66052363052084, 45.96991944145833], [-85.9200012245047, 45.930018138673496], [-86.21296659657904, 45.95852837490318], [-86.31775479566737, 45.909369313925176], [-86.35001974034527, 45.80001885651435], [-86.65997511832055, 45.70003155092711], [-86.65514269723727, 45.826221851892484], [-86.77381081958706, 45.85617998415468], [-86.84001570232647, 45.730023405269755], [-87.06885900883381, 45.719655371321956], [-87.16900175159566, 45.66023475270279], [-87.33001301860725, 45.42001030273177], [-87.59915188680529, 45.131084131557934], [-87.59002673218033, 45.09999336036779], [-87.6300174746744, 44.97002123383523], [-87.82406313624578, 44.944000169479295], [-87.98023220264452, 44.719184657437935], [-88.03218674088791, 44.580566459956074], [-88.02195097939526, 44.5575766097922], [-87.92492330506792, 44.54349509934518], [-87.77945127496919, 44.640778338674366], [-87.60998817299739, 44.83998248896698], [-87.40159145244745, 44.910404151211466], [-87.23998499946114, 45.16997927185476], [-87.03002712842734, 45.21997057734257], [-87.05002352292757, 45.09001307787403], [-87.19044850068529, 44.969176786334394], [-87.47021520334225, 44.54916447511443], [-87.54960279444605, 44.31994558016568], [-87.5400248369604, 44.16001305626428], [-87.64055529043517, 44.09780289770695], [-87.7372843621983, 43.88597440316374], [-87.7000269964824, 43.6900054450382], [-87.78987603609367, 43.559934286334], [-87.90959977345362, 43.249034142118084], [-87.88920460349203, 42.999300072515446], [-87.7600234646833, 42.77999528447518], [-87.83794075962614, 42.299490434633526], [-87.6800264628182, 42.07998490202013], [-87.52008340700887, 41.71120373942082], [-87.42502373381204, 41.64008911294347], [-87.12006949764823, 41.640360872265376], [-86.82004433439519, 41.76008548356184], [-86.61975804317892, 41.89101245518158], [-86.47998029126575, 42.119985138131725], [-86.35965383407667, 42.25082005340482], [-86.2599182297963, 42.44105609159593], [-86.2104338633307, 42.717570365348024], [-86.22971497670704, 43.00586716225211], [-86.52997261129649, 43.59000069469753], [-86.43115063105435, 43.811074872352386], [-86.49997430705412, 44.07999384067674], [-86.27108094532834, 44.33940444574593], [-86.22054542298424, 44.56907370166363], [-86.24997086247983, 44.68998364553228], [-86.0929027294297, 44.742425810263065], [-86.06997962648335, 44.89998092162704], [-85.81033833754425, 44.95068049162355], [-85.610024475468, 45.129948907310755], [-85.62850734248957, 44.78188574370816], [-85.6126291427602, 44.76684166232004], [-85.5138967733781, 44.75862916672911], [-85.39043312927306, 44.932327327198905], [-85.38997804821781, 45.23999003897875], [-85.30999093484631, 45.30998112633299], [-85.04259830780764, 45.362438671206434], [-85.1199727020523, 45.57999450792039], [-84.93999086594206, 45.759979236139344], [-84.71000493083778, 45.769975927058816], [-84.45989853215538, 45.65040655794213], [-84.22001095994722, 45.63997836220734], [-84.0965396830144, 45.4906042663907], [-83.9100041681946, 45.479981774224385], [-83.60086697397018, 45.350774998928436], [-83.4900111812464, 45.35997435306226], [-83.3200299743636, 45.14000316878795], [-83.44162697283454, 45.027371142839925], [-83.32002544331681, 44.87998609790468], [-83.27002013579383, 44.70999828942274], [-83.33002212214427, 44.340017287579954], [-83.53754665298968, 44.24925410043544], [-83.59001935268564, 44.050019352685645], [-83.83047882102913, 43.98728592581683], [-83.95667280680193, 43.75592990994113], [-83.90601028443278, 43.66903172053312], [-83.66736493203078, 43.59268624991354], [-83.47940404696732, 43.71086442018845], [-83.25998675517648, 43.969979664325294], [-82.92000216885334, 44.069971850434435], [-82.750013699761, 43.98998279057588], [-82.64002591400354, 43.84998739889304], [-82.54017101423439, 43.44070115836096], [-82.51945456809959, 43.22904184110955], [-82.41002638441769, 42.979998341784594], [-82.52001885487623, 42.6100185944223], [-82.67997886259766, 42.560031192088935], [-82.69628183424854, 42.67846660739949], [-82.79798372650184, 42.649262023497236], [-82.92001987376904, 42.35001794329378], [-83.12853618178221, 42.238836149855004], [-83.19001835848317, 42.01001153041475], [-83.43510210549695, 41.81379924553396], [-83.44808704412765, 41.742245323234066], [-83.43461079044617, 41.72473527041579], [-83.0700159231331, 41.599967077046024], [-82.93731679298216, 41.515762306552666], [-82.8399985827232, 41.58997105359236], [-82.62073523817617, 41.430646833396146], [-82.4799642535637, 41.38097657914902], [-82.00999817909883, 41.509981470344876], [-81.73826229023038, 41.4915299887394], [-81.43933565602131, 41.67027809747945], [-81.01063262507715, 41.84973518020026], [-80.32869649615682, 42.030548843723444], [-79.75971092996267, 42.270132687886], [-79.15299487042503, 42.548744309009656], [-79.04998194943526, 42.689977981850674], [-78.85699978570045, 42.78679150883912], [-78.9289900104545, 42.94700264293081], [-79.00997919922575, 42.99001624075379], [-79.06997201182985, 43.259981899937685], [-78.48944184233369, 43.37998926619873], [-77.97061342220965, 43.370011796580954], [-77.76050202595658, 43.3400717179938], [-77.52991424193358, 43.23166241324191], [-77.38999663156154, 43.27997911209864], [-76.9609743763117, 43.270113656545384], [-76.69916871405634, 43.34065987231446], [-76.4199916202015, 43.51997414443341], [-76.25061755171528, 43.53094647587813], [-76.22997785464331, 43.799993758775635], [-76.14781676153478, 43.95339856547016], [-76.35997085772703, 44.070011302793105], [-76.30998077249653, 44.19998142831798], [-75.91016814559228, 44.37025867158103], [-75.75945047692316, 44.51038924551276], [-75.27999083549217, 44.849984403989396], [-74.83047402653595, 45.01982092330864], [-74.14931218442025, 44.99001698310074], [-73.34017192571298, 45.009995754920666], [-72.3102205333921, 45.00000214110089], [-71.50424695753571, 45.01142748544441], [-71.3599864571078, 45.26997357345645], [-71.13293701932012, 45.241993390579715], [-71.0799873881058, 45.29998138236094], [-70.67284605193653, 45.43499779051459], [-70.67059656220393, 45.460063669435065], [-70.71996566834446, 45.5099994464076], [-70.55998460222989, 45.65997732308641], [-70.40357983563317, 45.73459012448344], [-70.39774291467802, 45.75460036534829], [-70.41997139736293, 45.79999123422257], [-70.26595933069783, 45.89035286692306], [-70.30984101214781, 46.060429267200895], [-70.20998129839828, 46.32998448482629], [-70.05941065357396, 46.42454382818981], [-69.99997989357486, 46.68998896266048], [-69.22999247493328, 47.45997685903661], [-69.04002177237237, 47.42998038224664], [-69.02775271290612, 47.242714443946085], [-68.90369256677498, 47.18210431417538], [-68.5799949524084, 47.28996978885699], [-68.3801053159256, 47.290474718235096], [-68.23000103619052, 47.35997490025248], [-67.95000941242753, 47.19998626346082], [-67.79002326897113, 47.0699887981065], [-67.78000378897983, 45.94042815472008], [-67.79767932709467, 45.68910323912461], [-67.46003215585404, 45.59998420679172], [-67.50632442272688, 45.48945951176398], [-67.42003006472724, 45.37999887199058], [-67.48174587253267, 45.29162678272998], [-67.48130808139955, 45.271240046897134], [-67.34913853106984, 45.13250172379382], [-67.16001294929549, 45.159974837067246], [-66.9800312494818, 44.800007761621494], [-67.19000215454948, 44.650027460009056], [-67.31004069596483, 44.704788179764364], [-67.41000888757013, 44.600024688738685], [-67.54503815476045, 44.61457649362154], [-67.57001921790088, 44.530025368554206], [-67.75236201271969, 44.537905643996396], [-68.04999105351175, 44.33003339914048], [-68.11956271200135, 44.475755866682036], [-68.19955804466515, 44.485559054885286], [-68.2114708614116, 44.46303287767632], [-68.17002750345702, 44.330013852942514], [-68.39998780068974, 44.25002870783135], [-68.46197536010393, 44.36972239956848], [-68.57000641281198, 44.31002202196718], [-68.82997700952042, 44.310022990479574], [-68.83586444054544, 44.449752630682006], [-68.9626118390228, 44.43338159914717], [-68.97680506350632, 44.414528556000526], [-68.96002255545096, 44.32000441832469], [-69.09638729684113, 44.103911472781036], [-69.07002994195514, 44.04000834848286], [-69.25955904996655, 43.92027849475797], [-69.43889556692898, 43.966414385898844], [-69.55001087337662, 43.840020072754584], [-69.70966478116289, 43.819227770604684], [-69.83000787170829, 43.72002684906479], [-69.98998232764878, 43.74002216080332], [-70.02235284101883, 43.82782819382383], [-70.04462070761436, 43.836748382969674], [-70.23803512284756, 43.6891170971099], [-70.24270772715347, 43.666843157608454], [-70.190033201217, 43.570014833899485], [-70.35312610529822, 43.53016564201797], [-70.37002282962813, 43.44001428342192], [-70.56018534770573, 43.3187688945969], [-70.81649526655889, 42.87536465395476], [-70.78002464380516, 42.70000036366702], [-70.81986515210907, 42.550505679590955], [-70.97735040471882, 42.42093843899561], [-70.98858509680991, 42.28562164249874], [-70.97247029215625, 42.26850015153298], [-70.77001243988074, 42.24997665344064], [-70.64002211960523, 42.089993739940375], [-70.65374353904696, 41.96290502154421], [-70.55002349340265, 41.92998045778704], [-70.53255505394897, 41.80850937456541], [-70.25998365388133, 41.72088753205146], [-69.9400397889643, 41.8099671166864], [-70.01001533030389, 41.67001901342163], [-70.48000288148859, 41.55001713004448], [-70.65998968149793, 41.55002688958535], [-70.76960519780211, 41.638304965093745], [-70.9208525965609, 41.610019819502135], [-70.93002282737199, 41.54001852199485], [-71.31995924031162, 41.470027901366876], [-71.20356926542225, 41.680883738473796], [-71.2246106259214, 41.71034630737014], [-71.3338554283876, 41.728065082543516], [-71.449034975983, 41.580666155646355], [-71.48002121943115, 41.37002145563276], [-71.85999915490167, 41.320019229051894], [-71.95199870237128, 41.33953579304494], [-72.39000210669754, 41.260029745735594], [-72.90792386635428, 41.27955725228243], [-73.13001087715749, 41.15002808112704], [-73.36998265794476, 41.099940580367154], [-73.5951029694526, 41.014509653648936], [-73.6061021179843, 40.99482593696979], [-73.59178106326647, 40.97740935399562], [-73.2322250330388, 40.91126038873128], [-73.1399928294802, 40.96997631738197], [-72.77000563997505, 40.970068146479406], [-72.59107001470026, 40.99993073988041], [-72.2800174926127, 41.15996509705401], [-72.2566989490777, 41.04154616444049], [-72.1000658179458, 40.98999806293313], [-72.47040115588115, 40.84988538403396], [-73.24060931683776, 40.629904794244105], [-73.56000137617872, 40.58002509369595], [-73.77996056596781, 40.58969536455712], [-73.93998828576703, 40.5400266574136], [-74.02181823092968, 40.70251193112743], [-74.18841195597334, 40.639714443858416], [-74.25740088099714, 40.491030415524186], [-74.000021325686, 40.40998086539333], [-73.98002508545234, 40.300000486912644], [-74.10002783378393, 39.76001306926031], [-74.41001714878303, 39.36002006619254], [-74.60967852975915, 39.24963441673369], [-74.79999706990756, 38.99004057444351], [-74.89276635996346, 39.15980232949766], [-75.17999040381792, 39.24002177059942], [-75.52997737268342, 39.460015597197454], [-75.56145546134373, 39.622166191487764], [-75.57929281475825, 39.63466368573604], [-75.60191867485878, 39.6244181809121], [-75.5900324873992, 39.463127302936364], [-75.44002456545999, 39.30998735817468], [-75.39790355684467, 39.06757261632033], [-75.19247699118644, 38.81368820005426], [-75.09002041758299, 38.799979291996564], [-75.05002933269449, 38.450004598960454], [-75.2400168946326, 38.03000951376312], [-75.38001284991118, 37.86001591076403], [-75.51110088534463, 37.79561036172232], [-75.59001876800697, 37.57000850502495], [-75.80001843118534, 37.20001989575857], [-75.96998775125198, 37.120032244814446], [-76.02997416295429, 37.260001466985884], [-75.94015045516785, 37.5594984827738], [-75.69469576347818, 37.927174452197036], [-75.715559491665, 37.94161857171099], [-75.8899742905005, 37.91002892094576], [-75.88174636531882, 38.068172215868], [-75.95996271065484, 38.13999715865081], [-75.86728369742598, 38.19945170395342], [-75.86523621748748, 38.2261127321189], [-75.9933798415629, 38.3580046183184], [-76.050010535022, 38.30002310524495], [-76.25998264538664, 38.320022951147095], [-76.32996780634511, 38.49997797737965], [-76.26152240934978, 38.5123463313527], [-76.2599780404937, 38.73999246552319], [-76.1920870667129, 38.8323120217535], [-76.27997202131922, 39.149996137313344], [-76.16998476019958, 39.32997895127793], [-76.00173275025088, 39.37429419538245], [-75.9768317741951, 39.546283152363166], [-75.99509993217188, 39.556039490075754], [-76.09058699911529, 39.53980969234415], [-76.1000252322101, 39.44001585577889], [-76.37306057024124, 39.305190532478065], [-76.44011417588368, 39.196904537004215], [-76.46002040524736, 38.91000732278783], [-76.5585733461131, 38.765477931192784], [-76.50988035692684, 38.54109629181743], [-76.38002304077698, 38.37999390557996], [-76.39852654730865, 38.26031625405991], [-76.32002568073398, 38.13999840117534], [-76.36000908703996, 38.06003563628729], [-76.5901605513084, 38.219628993338375], [-76.91998461477665, 38.29002198431771], [-76.97188437055611, 38.370219987435554], [-76.99381586526256, 38.37118447678879], [-77.00308087212815, 38.34953884967622], [-76.95565397989435, 38.220604107916316], [-76.61001455642115, 38.14997658742542], [-76.50891172694296, 38.01986114852547], [-76.2400282502016, 37.88998941197645], [-76.357959549971, 37.61102504718065], [-76.25002945937743, 37.39000676505445], [-76.37762175158207, 37.29080504683662], [-76.3981841381855, 37.171176508831195], [-76.27003886936308, 37.07999694303342], [-76.39506345046212, 36.95869881049949], [-76.37676752451344, 36.94320605147081], [-75.99001784615844, 36.91997693660659], [-75.75003279506534, 36.15002822357487], [-76.02618654629775, 36.188033171809415], [-76.07001421595159, 36.140023967077624], [-76.40577481297406, 36.08064050387186], [-76.4600109235588, 36.03002332225258], [-76.66458463566715, 36.01058427981757], [-76.67294746714283, 35.96063226999976], [-76.65150313512352, 35.94352849079349], [-76.40000951750956, 35.98997444145013], [-76.3503406881947, 35.94170416651984], [-76.06000756213554, 35.98997407644938], [-75.95750412795515, 35.90202066285829], [-75.78001634419181, 35.939973554542135], [-75.72002668260843, 35.70000292900939], [-75.78001640462804, 35.58002423017634], [-75.90207811389729, 35.56735445453803], [-76.15000933737701, 35.32002161066429], [-76.48174674729815, 35.30236156530082], [-76.53448769878256, 35.134314789450215], [-76.39112996315794, 34.97184684297383], [-76.28003728494173, 34.939987207247526], [-76.49001042821862, 34.66002602774752], [-76.67000668320848, 34.68987000217049], [-76.98795856407165, 34.670127589745526], [-77.209949978443, 34.60987541279282], [-77.55915651254375, 34.42036634143004], [-77.82722884396541, 34.16266852062589], [-77.97001239940036, 33.850028340310324], [-78.18107067495274, 33.91936303251435], [-78.53922511489702, 33.85015067210336], [-78.71985890543614, 33.799707816245004], [-78.9378640833447, 33.641553393931126], [-79.14900394293872, 33.38062081682172], [-79.19002480634934, 33.17001361486315], [-79.36000867852466, 33.01002188356986], [-79.57776067059116, 33.00664100588675], [-79.63001825147472, 32.89001648480152], [-79.86979403493325, 32.759743503763644], [-80.00001285749389, 32.610020170174415], [-80.2126677332746, 32.54818109094913], [-80.4256039125032, 32.40287843705633], [-80.45002139607071, 32.330019637145966], [-80.66141493034169, 32.24850887412295], [-80.88860129292478, 32.03133789372412], [-81.12925062831206, 31.69085375920839], [-81.18001920218857, 31.52000760067678], [-81.27908367532314, 31.360737622333524], [-81.29002237780884, 31.210012349826002], [-81.40014831039541, 31.124716605084547], [-81.43968720598676, 30.70770617723625], [-81.37973427713426, 30.26893710853709], [-81.25992284592398, 29.790026877489282], [-80.96994893183944, 29.15002800988541], [-80.52002972265747, 28.460005602986843], [-80.58915069430608, 28.402968484361033], [-80.5695363731823, 28.090133258046553], [-80.37978615405068, 27.73946907212583], [-80.09021796408909, 27.020541152221174], [-80.03002661396998, 26.799997022862723], [-80.04005802175743, 26.569562199466667], [-80.15002248160904, 25.740020608040492], [-80.24392202437886, 25.710194939052844], [-80.33796951003974, 25.474006169546247], [-80.30002728644597, 25.380005812432476], [-80.50000295102674, 25.200027517244603], [-80.57319458588978, 25.237647559646636], [-80.76000631807369, 25.16001992017791], [-81.07999109244469, 25.120023895656878], [-81.16997436870685, 25.22000637895162], [-81.13187554162249, 25.38283760258272], [-81.34888573030884, 25.816907906859633], [-81.5280409360921, 25.898154859903705], [-81.67998806269298, 25.840030651126987], [-81.79997620822789, 26.090007312889714], [-81.83081835888905, 26.289610292033093], [-82.04016535534312, 26.520496066029356], [-82.08997835838795, 26.670002452560365], [-82.06494190460931, 26.87703724513657], [-82.15536859390465, 26.90682441926375], [-82.16506838646579, 26.88858435346163], [-82.15002453804364, 26.79001549870175], [-82.24998998815343, 26.760025645930753], [-82.5691123879677, 27.298502154695512], [-82.68997120779517, 27.440000937880036], [-82.41732412262884, 27.803567836494874], [-82.41590333424881, 27.82539209892104], [-82.43338919049047, 27.83556773064893], [-82.58857552807771, 27.81928069025756], [-82.71999617851411, 27.690036432002238], [-82.8499743031172, 27.890003508405865], [-82.68011739246913, 28.4300232917294], [-82.64253239044406, 28.890105841006946], [-82.75998027478272, 29.00001195095041], [-82.8025840424941, 29.147132204734717], [-82.98998961372011, 29.18001987071007], [-83.21936307574086, 29.41919138575033], [-83.39997670658423, 29.52001477089724], [-83.41195506484964, 29.666208634629527], [-83.53998447020417, 29.72001832119106], [-83.642978561596, 29.891515747211077], [-84.02638424982706, 30.099248911785054], [-84.34911710532575, 30.058880937052283], [-84.34002640544462, 29.90003044573344], [-84.45282484791214, 29.928295567537855], [-84.87000795424014, 29.740030174330204], [-85.30997525661239, 29.700024743387615], [-85.30202260579553, 29.811352968455704], [-85.40025695342104, 29.93970655189436], [-85.9220812871805, 30.240657248583314], [-86.30001822346748, 30.35991584396084], [-86.63000090222785, 30.399870072924205], [-86.91039327991832, 30.36994197509402], [-87.65999550290566, 30.25002483894513], [-87.90997549998659, 30.410014707908033], [-87.92963953768809, 30.651042307286748], [-87.9985736422594, 30.684777204524536], [-88.01693803556186, 30.67512359829775], [-88.09988104164042, 30.49995918446488], [-88.14001711528003, 30.320026274198593], [-88.38573153788693, 30.369036096834865], [-88.50000325909902, 30.32002139953986], [-88.73948381914055, 30.34993547739257], [-88.84324688080362, 30.409048251989997], [-89.07827790053679, 30.3702870165772], [-89.41910141751437, 30.250230394584385], [-89.52000948075752, 30.180016418204218], [-89.81882640432855, 30.037754018186163], [-89.83627162127281, 29.96631362461644], [-89.8274541782542, 29.947278287699028], [-89.60862968709718, 29.883441794701316], [-89.49999393967035, 30.03996680149698], [-89.29002513247568, 29.879988732068263], [-89.30002303768313, 29.750016670019235], [-89.41953155196049, 29.70019518668313], [-89.63262753169599, 29.738433364930536], [-89.62002734696773, 29.660002305410824], [-89.69348874216709, 29.514809951916927], [-89.50983642958904, 29.390453985913418], [-89.20001387665793, 29.34997648836698], [-89.0916942939972, 29.203022261233023], [-89.00004476019872, 29.179986227015885], [-89.16000849891628, 29.01002520062302], [-89.33998829901395, 29.040019633518693], [-89.48316060988653, 29.22039153224285], [-89.84997815916367, 29.310017165047093], [-89.85009388816519, 29.455622818328415], [-89.86960293201025, 29.47368323393429], [-90.02527790594762, 29.426652745358275], [-90.02002663798557, 29.280006590613567], [-90.1000138234457, 29.150020830140427], [-90.22998959885469, 29.130023602761174], [-90.33489197604399, 29.27913698391261], [-90.5507333015863, 29.279893926256037], [-90.65001475068416, 29.130019586317157], [-90.79999689398083, 29.090024541312058], [-90.96014051480216, 29.17953687874756], [-91.08998419721782, 29.190023909714345], [-91.22440700852975, 29.442013602763005], [-91.44721204758095, 29.54823586365216], [-91.52998577572434, 29.530028676502116], [-91.62334326257746, 29.73619795387358], [-91.87997793848118, 29.710026753556743], [-91.8880338881637, 29.81323179712383], [-91.90483484546195, 29.829575795510397], [-92.1392372230289, 29.72318513484595], [-92.11002988457415, 29.620012807674634], [-92.31000332386866, 29.540026220899158], [-92.61999627349347, 29.580017281442775], [-92.97001770446211, 29.719943498126547], [-93.23108004586776, 29.77978646017167], [-93.76779477145821, 29.730089951394785], [-93.84000651252876, 29.690020097725807], [-94.00177602609682, 29.679555993475795], [-94.51999861720873, 29.550025579568068], [-94.70998061518763, 29.620016203367843], [-94.7469409506615, 29.769424473824976], [-94.87000560940689, 29.670024287199755], [-94.9656634941687, 29.69366745751913], [-95.01515325440276, 29.566143361994623], [-94.9100244842545, 29.499984580747412], [-94.90002412086088, 29.310008535586835], [-95.08001143765657, 29.110012121951073], [-95.38001027856464, 28.870015393639584], [-95.98999595927336, 28.60002887872396], [-96.05341102704485, 28.64708242475996], [-96.22997797737965, 28.5800321936549], [-96.23082509764036, 28.62223096027184], [-96.24933000486895, 28.636534392270946], [-96.4799911220574, 28.600025494497125], [-96.58633355299096, 28.71466118861834], [-96.63833133642134, 28.701397993540684], [-96.63596523601063, 28.675965236010637], [-96.40003930561285, 28.44000769946742], [-96.5900015194695, 28.3600237883756], [-96.76846728468973, 28.398511466164802], [-96.80002371255362, 28.23001366360391], [-97.03047851379638, 28.03909113467584], [-97.25883975458987, 27.691765590841502], [-97.40001386883522, 27.330027518625133], [-97.49389188604654, 27.355188355689076], [-97.51412776865182, 27.341662944444998], [-97.52754242846463, 27.24437656459497], [-97.43002780651918, 27.259969987670175], [-97.48001907837296, 27.00002037351664], [-97.55916894309163, 26.978049758397653], [-97.55964913149688, 26.845251491341205], [-97.47002035082389, 26.759989613494408], [-97.43994224067407, 26.463267798652257], [-97.33002226139706, 26.349989379710614], [-97.30964561718535, 26.160108028841105], [-97.22003162383301, 25.99001267033363], [-97.51999335917735, 25.890028130976166], [-97.65397212064843, 26.020732147748358], [-97.89001227991912, 26.069858511929734], [-98.19999428549698, 26.060022254054548], [-98.47015077077984, 26.219540905048756], [-98.66998927783209, 26.240024881665803], [-98.8212684889571, 26.369792858808886], [-99.02998989240129, 26.410019982252], [-99.16963303729172, 26.539659248913733], [-99.2699985745999, 26.838911170559786], [-99.44997443389781, 27.02000774079291], [-99.42110041479651, 27.168852088663435], [-99.50997424028239, 27.340003575032217], [-99.48486756769347, 27.48583471370784], [-99.60823562458663, 27.637212198869108], [-99.70998943887184, 27.660022250507257], [-99.87997755038421, 27.800014593341608], [-99.93101192625356, 27.98053711647639], [-100.07946857139663, 28.13933092145262], [-100.29998045172904, 28.280015262828762], [-100.39968223476681, 28.577891348599227], [-100.49997880022511, 28.66001741822264], [-100.62998096355032, 28.910007799334878], [-100.67377286830445, 29.104063088943263], [-100.80081767329226, 29.240412305294427], [-101.00998083169068, 29.370018284099896], [-101.06155847431798, 29.45970663030418], [-101.25998566648724, 29.540018259283286], [-101.41016830268714, 29.74787990405144], [-101.85000215070464, 29.799942450795893], [-102.10999675700236, 29.79002173000376], [-102.33838606498685, 29.863479956373837], [-102.39001445672027, 29.770019573810444], [-102.63472919229065, 29.724482608994233], [-102.80966923176467, 29.519812722207494], [-102.92001789366205, 29.190020940655174], [-102.98224240809304, 29.17633297194472], [-103.12001217082852, 28.990022326595206], [-103.27999280463007, 28.980027779515215], [-103.53004540818375, 29.13991045782435], [-104.14998854892579, 29.38001767773656], [-104.27105159404039, 29.510433010576293], [-104.5099802911979, 29.640020703805966], [-104.67997485239994, 29.920007560510893], [-104.691350279234, 30.180472096667796], [-104.85998075737936, 30.390009833404275], [-104.90016584223086, 30.56873405467894], [-105.00720284285612, 30.68694855584304], [-105.38998442386973, 30.86002155526005], [-105.59871617188607, 31.088452320770283], [-105.76998716689137, 31.170017744773993], [-105.95024639121695, 31.359644697844015], [-106.20998394136416, 31.4700192217278], [-106.37910769202598, 31.727879404026012], [-106.52642383454426, 31.788569533817704], [-108.19580569354508, 31.789138806714643], [-108.21, 31.77], [-108.21002299047957, 31.33002299047957], [-111.06999609958923, 31.33002547546633], [-114.81996833289152, 32.49001457005497], [-114.73252745243185, 32.69142705970321], [-114.74722200892232, 32.717094342559676], [-117.12999005873439, 32.540025202399534], [-117.24997866418978, 32.670008341956915], [-117.25045834265755, 32.88101163228827], [-117.32891664965597, 33.1167499489679], [-117.4695323107693, 33.29928478039915], [-117.78003345257831, 33.53994903222857], [-118.17040434991894, 33.75461832229015], [-118.26000521488778, 33.70002690538147], [-118.4099718841367, 33.740017486510595], [-118.3942845017588, 33.844124073704194], [-118.56727252842988, 34.03560707922837], [-118.79999768696098, 34.00002701362447], [-119.21955015929147, 34.149839342604096], [-119.28220919666079, 34.27070788759449], [-119.5591489161243, 34.41904928745488], [-119.87999720670645, 34.41002399759397], [-120.1417934057663, 34.47975852213549], [-120.4699927484797, 34.450026467864305], [-120.64997447251567, 34.580010844252605], [-120.6115972469344, 34.84955783442285], [-120.66997394394582, 34.90001079277102], [-120.63557438736738, 35.10061937761181], [-120.88997928146375, 35.25001338520809], [-120.91407105044307, 35.445973440575706], [-120.99998821513297, 35.46002364879158], [-121.16887725952647, 35.638327118142335], [-121.27998333080178, 35.670019582376014], [-121.33083587621009, 35.78073129258161], [-121.71839757134572, 36.19827430760309], [-121.89997915752035, 36.32001288136083], [-121.93997348185539, 36.63996640350542], [-121.85713989229858, 36.6221989752186], [-121.79263497900703, 36.79754205459404], [-121.9231284311734, 36.97116512579433], [-122.10999320255881, 36.96002678036984], [-122.3399841571179, 37.12001553226747], [-122.41997710819881, 37.24000491337464], [-122.40228143126649, 37.36152100485854], [-122.5199793635853, 37.520007221532914], [-122.52, 37.77950902755782], [-122.35280779394235, 37.780098120571765], [-122.33557949080095, 37.79442401597437], [-122.4075556764732, 38.13182149727194], [-122.42947422606112, 38.139853119104465], [-122.48878734361654, 38.10578309335782], [-122.50002364726578, 37.93002050916488], [-122.69949175635743, 37.89010164872852], [-122.9399788505613, 38.030014591623605], [-122.98024072415879, 38.268724932567025], [-123.12783089294847, 38.44739707153818], [-123.32998051999537, 38.570022918331325], [-123.44004252344679, 38.69995797681168], [-123.73996881836239, 38.96000370381814], [-123.69279788583968, 39.0362334002511], [-123.81997485180035, 39.37000054644186], [-123.7611442191404, 39.552111437438484], [-123.85042110251288, 39.82975344523656], [-124.10941037895238, 40.109235265165395], [-124.36012705933807, 40.26045741361703], [-124.4099744520889, 40.439996844927805], [-124.15938157132202, 40.88185528603393], [-124.11147415407777, 41.02805183761998], [-124.15997246366814, 41.14000186389139], [-124.07091754513564, 41.44190241246499], [-124.1491583100195, 41.71562757406839], [-124.25997265583061, 41.78001234213588], [-124.2130891439772, 41.99784245302654], [-124.3599790350843, 42.12001301888739], [-124.42998125006889, 42.44000242139483], [-124.42087928993197, 42.65873774749675], [-124.54997159607015, 42.840000950263025], [-124.44983797283598, 43.0010362650473], [-124.37997741754485, 43.26999171279594], [-124.24007329596317, 43.560027704697006], [-124.16981446540032, 43.81143367645211], [-124.06039916968777, 44.65691550695813], [-124.07998006914627, 44.769999599416195], [-123.9798560097116, 45.141871873749245], [-123.94013714449136, 45.659147401257634], [-123.98997372413831, 45.93999928535939], [-123.95011235887314, 46.10952247478916], [-123.61304840994322, 46.23635684627129], [-123.60011992994467, 46.25648330152035], [-123.61383101504669, 46.274085116607075], [-123.72990580860923, 46.298991326431846], [-123.86999974301838, 46.24002861292894], [-124.0699728743257, 46.330012267530094], [-124.02997801337963, 46.459982977604476], [-123.91991270353508, 46.52786394075977], [-123.91284869745637, 46.54936909063508], [-124.09997443657234, 46.74001454598704], [-124.23905898759548, 47.28589444881132], [-124.31998040680628, 47.360012472246936], [-124.4288933806454, 47.7357925527657], [-124.61997861780075, 47.89001468220173], [-124.7099732618257, 48.179997291264286]], [[-76.49268279267338, 36.951922464345245], [-76.43530403975716, 36.95906883999709], [-76.43829213156833, 36.98107357499987], [-76.60767328046619, 37.110493006728184], [-76.627772646065, 37.11106809128978], [-76.655237915699, 37.08421796844819], [-76.64970123607418, 37.056467490716116], [-76.49268279267338, 36.951922464345245]], [[-77.0519290398404, 38.81087581972068], [-77.02319193539728, 38.804346482484796], [-76.9229336647516, 38.89648535758066], [-77.03703582623729, 38.98519448732061], [-77.11384017515128, 38.92578129542995], [-77.0519290398404, 38.81087581972068]], [[-77.00965713479495, 38.36993064156997], [-76.98648362144792, 38.394745514697185], [-77.02667614782014, 38.44428690924922], [-77.14713291876562, 38.37835528176757], [-77.12883273463275, 38.357173017284055], [-77.00965713479495, 38.36993064156997]], [[-77.28257078285723, 38.53300112999983], [-77.27811850468306, 38.507805330667544], [-77.2541269606302, 38.50642732546983], [-77.1885761880859, 38.57156281829532], [-77.18757830625319, 38.595580139718685], [-77.2065106121273, 38.60408304406684], [-77.24828281939531, 38.58954931918557], [-77.28257078285723, 38.53300112999983]], [[-77.23386435936929, 38.345126182292304], [-77.21788255043086, 38.373316973865414], [-77.28023301800903, 38.480202221846376], [-77.30517731650893, 38.48643530646751], [-77.32735477075121, 38.446112943685655], [-77.28600146645854, 38.35320322620881], [-77.23386435936929, 38.345126182292304]]], [[[-85.61996714276405, 45.59002874237277], [-85.56998611989613, 45.759968112507266], [-85.51001957381042, 45.72998554327971], [-85.49002690273502, 45.610019471296866], [-85.61996714276405, 45.59002874237277]]], [[[-89.18997345341742, 47.83002824538845], [-89.1799797766669, 47.93998444326684], [-88.55005888057902, 48.16995628242606], [-88.67001479310738, 48.01002312028527], [-88.8107734505048, 47.97950763056143], [-89.0600092783368, 47.85002836984067], [-89.18997345341742, 47.83002824538845]]], [[[-122.76996737977622, 48.23000917821331], [-122.71998339469114, 48.309978397562325], [-122.59002585040189, 48.349968421402366], [-122.61001861377896, 48.15003377147396], [-122.76996737977622, 48.23000917821331]]], [[[-123.03997494227694, 48.46001935652506], [-123.02997738676298, 48.57999111044284], [-122.91999854824142, 48.71996671702408], [-122.77002394444673, 48.55999420568172], [-122.8100163310387, 48.420026039561186], [-123.03997494227694, 48.46001935652506]]], [[[-156.05997082586646, 19.72999461981172], [-155.9296249025594, 19.860778602884942], [-155.83431721518625, 20.02339078291618], [-155.89997478454842, 20.15000462656273], [-155.87998265462136, 20.269965937664985], [-155.59874463933573, 20.129568469771662], [-155.28001522534228, 20.019972109833656], [-155.09002456837365, 19.869988094118458], [-155.08387244625115, 19.73531392805118], [-154.8100352346254, 19.519997893478845], [-154.98001024972308, 19.350018102962306], [-155.29882120150268, 19.27016008333664], [-155.50667179882265, 19.132218800784887], [-155.63000864085834, 18.950026195729073], [-155.88021291195471, 19.040425823909455], [-155.91997514013588, 19.1200041899253], [-155.89112241976792, 19.35168708846119], [-156.05997082586646, 19.72999461981172]]], [[[-156.6999689378286, 20.9199972802325], [-156.59000126152003, 21.029967152030856], [-156.47162998245912, 20.895345497389506], [-156.32000098217952, 20.949976386838088], [-156.00002780563736, 20.78998882752533], [-156.05001903951853, 20.65002177844185], [-156.37999735536343, 20.58002691776873], [-156.44997634738394, 20.610016613431288], [-156.46443596111456, 20.777556416249087], [-156.62998401987088, 20.820023581047543], [-156.6999689378286, 20.9199972802325]]], [[[-157.30996046698723, 21.110021701484957], [-157.23998828590652, 21.219977652987296], [-156.9800488689612, 21.209980849741704], [-157.0800097915535, 21.110023638901232], [-157.30996046698723, 21.110021701484957]]], [[[-158.2499654502962, 21.579980583330794], [-158.12929435874952, 21.59083621199842], [-157.9500102933564, 21.69996627603226], [-157.84002473169429, 21.46000003271382], [-157.90001645160862, 21.33002208963994], [-158.1099872267687, 21.30002437858475], [-158.2499654502962, 21.579980583330794]]], [[[-159.75997320709976, 21.990014918582172], [-159.72997932171853, 22.149981538439892], [-159.47045604106174, 22.229859679673314], [-159.35001511601578, 22.219978539765822], [-159.30002909279122, 22.109996852560908], [-159.33002011613723, 21.970012156193377], [-159.45000427956884, 21.87002607055229], [-159.75997320709976, 21.990014918582172]]]]}}]}
